{"lat":49.18449,"lon":-122.9497,"amenity":"Accommodation","name":"Queens Hotel - New Westminster","tag":{"website":"http:\/\/www.queenshotel.ca"}}
{"lat":49.0168,"lon":-122.7898,"amenity":"Accommodation","name":"Ocean Promenade Hotel","tag":{"website":"http:\/\/www.oceanpromenadehotel.com"}}
{"lat":49.28051,"lon":-123.117,"amenity":"Accommodation","name":"L'Hermitage Hotel","tag":{"website":"http:\/\/www.lhermitagevancouver.com"}}
{"lat":49.27804,"lon":-123.1283,"amenity":"Accommodation","name":"The Landis Hotel & Suites","tag":{"website":"https:\/\/landisvancouver.com\/"}}
{"lat":49.03917,"lon":-122.3341,"amenity":"Accommodation","name":"Alpine Inn - Abbotsford","tag":{"website":"http:\/\/www.thealpineinn.ca\/"}}
{"lat":49.28335,"lon":-123.1191,"amenity":"Accommodation","name":"Rosewood Hotel Georgia","tag":{"website":"http:\/\/www.rosewoodhotels.com"}}
{"lat":49.04343,"lon":-122.7914,"amenity":"Accommodation","name":"Best Western Peace Arch Inn","tag":{"website":"https:\/\/www.bestwestern.com\/en_US\/book\/hotels-in-surrey\/best-western-peace-arch-inn\/propertyCode.62117.html"}}
{"lat":49.29213,"lon":-123.1295,"amenity":"Accommodation","name":"The Westin Bayshore Vancouver","tag":{"website":"http:\/\/www.westinbayshore.com\/?SWAQ=958P"}}
{"lat":49.26085,"lon":-122.7593,"amenity":"Accommodation","name":"Poco Inn & Suites Hotel","tag":{"website":"http:\/\/www.poco-inn-and-suites.com"}}
{"lat":49.24223,"lon":-122.8845,"amenity":"Accommodation","name":"Ramada by Wyndham Coquitlam","tag":{"website":"https:\/\/www.wyndhamhotels.com\/ramada\/coquitlam-british-columbia\/ramada-coquitlam-vancouver\/overview"}}
{"lat":49.28689,"lon":-123.141,"amenity":"Accommodation","name":"Best Western Plus Sands Hotel","tag":{"website":"https:\/\/www.bestwestern.com\/en_US\/book\/hotel-rooms.62025.html?iata=00171880&ssob=BLBWI0004G&cid=BLBWI0004G:google:gmb:62025"}}
{"lat":49.32643,"lon":-123.1193,"amenity":"Accommodation","name":"North Vancouver Hotel","tag":{"website":"https:\/\/www.northvanhotel.com\/"}}
{"lat":49.18797,"lon":-123.11,"amenity":"Accommodation","name":"Sandman Signature Hotel & Resort Vancouver Airport","tag":{"website":"https:\/\/www.sandmanhotels.com\/locations\/british-columbia\/vancouver-airport\/hotels\/signature-vancouver-airport-zyvr"}}
{"lat":49.26746,"lon":-123.0107,"amenity":"Accommodation","name":"Executive Hotel Burnaby","tag":{"website":"http:\/\/www.executivehotelburnaby.ca"}}
{"lat":49.17071,"lon":-123.145,"amenity":"Accommodation","name":"Executive Hotel Vancouver Airport","tag":{"website":"http:\/\/www.executivehotels.net\/vancouver-airport-hotel\/"}}
{"lat":49.28381,"lon":-123.1181,"amenity":"Accommodation","name":"Metropolitan Hotel, Vancouver","tag":{"website":"http:\/\/www.metropolitan.com\/vanc\/"}}
{"lat":49.11227,"lon":-122.6788,"amenity":"Accommodation","name":"Westward Inn & Suites","tag":{"website":"https:\/\/www.westwardinnandsuites.com\/"}}
{"lat":49.27711,"lon":-123.1269,"amenity":"Accommodation","name":"Ramada by Wyndham Vancouver Downtown","tag":{"website":"http:\/\/www.ramadavancouver.com\/"}}
{"lat":49.17087,"lon":-123.1423,"amenity":"Accommodation","name":"Sheraton Vancouver Airport","tag":{"website":"http:\/\/www.sheratonvancouverairport.com\/?_aa_Google_My_Business__SI_3456__NAD_FM&SWAQ=958P"}}
{"lat":49.28247,"lon":-123.1122,"amenity":"Accommodation","name":"Victorian Hotel","tag":{"website":"http:\/\/victorianhotel.ca\/"}}
{"lat":49.03358,"lon":-123.0688,"amenity":"Accommodation","name":"Coast Tsawwassen Inn","tag":{"website":"https:\/\/www.coasthotels.com\/coast-tsawwassen-inn"}}
{"lat":49.27861,"lon":-123.1159,"amenity":"Accommodation","name":"Rosedale on Robson Suite Hotel","tag":{"website":"http:\/\/www.rosedaleonrobson.com\/"}}
{"lat":49.28138,"lon":-123.0744,"amenity":"Accommodation","name":"The Waldorf Hotel","tag":{"website":"http:\/\/www.waldorfhotel.com\/"}}
{"lat":49.33366,"lon":-123.062,"amenity":"Accommodation","name":"Crystal's View B&B","tag":{"website":"http:\/\/www.bc-bedandbreakfast.com\/"}}
{"lat":49.22641,"lon":-122.9365,"amenity":"Accommodation","name":"Happy Day Inn","tag":{"website":"https:\/\/www.happydayinn.com\/"}}
{"lat":49.26955,"lon":-123.131,"amenity":"Accommodation","name":"Granville Island Hotel","tag":{"website":"http:\/\/www.granvilleislandhotel.com\/"}}
{"lat":49.2795,"lon":-123.1204,"amenity":"Accommodation","name":"Moda Hotel","tag":{"website":"http:\/\/www.modahotel.ca\/"}}
{"lat":49.19158,"lon":-123.1251,"amenity":"Accommodation","name":"Executive Inn Express-Vancouver Airport","tag":{"website":"http:\/\/www.executivehotels.net\/vancouver-airport-hotel\/"}}
{"lat":49.28765,"lon":-123.1292,"amenity":"Accommodation","name":"Tropicana Suite Hotel","tag":{"website":"http:\/\/pavillonimperial.com\/"}}
{"lat":49.26349,"lon":-123.1204,"amenity":"Accommodation","name":"Holiday Inn Vancouver - Centre (Broadway)","tag":{"website":"http:\/\/www.hivancouver.com"}}
{"lat":49.10502,"lon":-122.6568,"amenity":"Accommodation","name":"Coast Hotel & Convention Centre","tag":{"website":"https:\/\/www.coasthotels.com\/hotels\/bc\/langley\/coast-hotel-and-convention-centre-langley-city\/"}}
{"lat":49.26147,"lon":-123.1117,"amenity":"Accommodation","name":"Windsor Guest House","tag":{"website":"https:\/\/www.beautifulguesthouse.ca\/houses\/windsor\/"}}
{"lat":49.25921,"lon":-123.1143,"amenity":"Accommodation","name":"Douglas Guest House","tag":{"website":"http:\/\/www.douglas.beautifulguesthouse.ca\/"}}
{"lat":49.28724,"lon":-123.1137,"amenity":"Accommodation","name":"Fairmont Waterfront","tag":{"website":"http:\/\/www.fairmont.com\/waterfront-vancouver"}}
{"lat":49.19214,"lon":-123.1276,"amenity":"Accommodation","name":"Hampton Inn by Hilton - Vancouver Airport","tag":{"website":"http:\/\/hamptoninn3.hilton.com\/en\/hotels\/british-columbia\/hampton-inn-by-hilton-vancouver-airport-richmond-YVRRHHX\/index.html"}}
{"lat":49.27858,"lon":-123.1256,"amenity":"Accommodation","name":"Holiday Inn & Suites Vancouver Downtown","tag":{"website":"http:\/\/www.holidayinnvancouverdowntown.com\/"}}
{"lat":49.24048,"lon":-123.0565,"amenity":"Accommodation","name":"2400 Motel","tag":{"website":"https:\/\/2400motel.com\/"}}
{"lat":49.28397,"lon":-123.1208,"amenity":"Accommodation","name":"Fairmont Hotel Vancouver","tag":{"website":"http:\/\/www.fairmont.com\/hotelvancouver"}}
{"lat":49.18383,"lon":-123.1046,"amenity":"Accommodation","name":"Holiday Inn Vancouver Airport - Richmond","tag":{"website":"https:\/\/www.ihg.com\/holidayinnexpress\/hotels\/us\/en\/richmond\/yvria\/hoteldetail"}}
{"lat":49.27986,"lon":-123.1277,"amenity":"Accommodation","name":"The Burrard","tag":{"website":"http:\/\/theburrard.com\/"}}
{"lat":49.13335,"lon":-122.331,"amenity":"Accommodation","name":"Best Western PLUS Mission City Lodge","tag":{"website":"https:\/\/www.bestwestern.com\/en_US\/book\/hotel-rooms.62103.html?iata=00171880&ssob=BLBWI0004G&cid=BLBWI0004G:google:gmb:62103"}}
{"lat":49.26399,"lon":-123.0219,"amenity":"Accommodation","name":"Accent Inn - Burnaby","tag":{"website":"http:\/\/www.accentinns.com\/burnaby"}}
{"lat":49.28104,"lon":-123.1327,"amenity":"Accommodation","name":"Sandman Suites Vancouver - Davie Street","tag":{"website":"https:\/\/www.sandmanhotels.com\/locations\/british-columbia\/vancouver\/hotels\/vancouver-davie-street-dav"}}
{"lat":49.28584,"lon":-123.1238,"amenity":"Accommodation","name":"Shangri-La Hotel, Vancouver","tag":{"website":"http:\/\/www.shangri-la.com\/vancouver"}}
{"lat":49.03785,"lon":-122.3351,"amenity":"Accommodation","name":"Best Western PLUS Regency Inn & Conference Centre","tag":{"website":"https:\/\/www.bestwestern.com\/en_US\/book\/hotel-rooms.62072.html?iata=00171880&ssob=BLBWI0004G&cid=BLBWI0004G:google:gmb:62072"}}
{"lat":49.17043,"lon":-123.1409,"amenity":"Accommodation","name":"Vancouver Airport Marriott","tag":{"website":"http:\/\/www.marriott.com\/hotels\/travel\/yvrsa-vancouver-airport-marriott-hotel\/?scid=bb1a189a-fec3-4d19-a255-54ba596febe2"}}
{"lat":49.27991,"lon":-123.1171,"amenity":"Accommodation","name":"Hilton Vancouver Downtown","tag":{"website":"https:\/\/www.hilton.com\/en\/hotels\/yvrwghh-hilton-vancouver-downtown\/"}}
{"lat":49.1486,"lon":-122.8463,"amenity":"Accommodation","name":"Best Western King George Inn & Suites","tag":{"website":"http:\/\/www.bestwesternsurrey.com\/"}}
{"lat":49.1525,"lon":-122.7622,"amenity":"Accommodation","name":"Comfort Inn & Suites Surrey","tag":{"website":"http:\/\/www.comfortinnsurrey.com"}}
{"lat":49.29311,"lon":-123.1351,"amenity":"Accommodation","name":"Lord Stanley Suites on the Park","tag":{"website":"http:\/\/www.lordstanley.com\/"}}
{"lat":49.10902,"lon":-122.6615,"amenity":"Accommodation","name":"Days Inn & Suites - Langley","tag":{"website":"https:\/\/www.wyndhamhotels.com\/en-ca\/days-inn\/langley-british-columbia\/days-inn-and-suites-langley\/overview"}}
{"lat":49.28512,"lon":-123.1206,"amenity":"Accommodation","name":"Hyatt Regency Vancouver","tag":{"website":"http:\/\/hyattregencyvancouver.com"}}
{"lat":49.19162,"lon":-122.7975,"amenity":"Accommodation","name":"Sheraton Vancouver Guildford Hotel","tag":{"website":"http:\/\/www.marriott.com\/yvrsi"}}
{"lat":49.22866,"lon":-123.0044,"amenity":"Accommodation","name":"Hilton Vancouver Metrotown","tag":{"website":"https:\/\/www.hilton.com\/en\/hotels\/yvrvmhf-hilton-vancouver-metrotown\/?SEO_id=GMB-HF-YVRVMHF&y_source=1_MjIwNTY2Ny03MTUtbG9jYXRpb24uZ29vZ2xlX3dlYnNpdGVfb3ZlcnJpZGU%3D"}}
{"lat":49.22432,"lon":-122.9859,"amenity":"Accommodation","name":"Best Western Plus Burnaby Hotel","tag":{"website":"http:\/\/www.bestwesternkingsinn.com\/"}}
{"lat":49.19138,"lon":-123.113,"amenity":"Accommodation","name":"Travelodge Hotel - Vancouver Airport","tag":{"website":"https:\/\/www.wyndhamhotels.com\/travelodge\/richmond-british-columbia\/travelodge-hotel-vancouver-airport\/overview?CID=LC:TL::GGL:RIO:National:09674"}}
{"lat":49.24652,"lon":-122.8914,"amenity":"Accommodation","name":"Executive Plaza Coquitlam","tag":{"website":"https:\/\/www.executivehotels.net\/mobile\/coquitlam-hotel\/"}}
{"lat":49.02377,"lon":-122.8048,"amenity":"Accommodation","name":"Donna's B&B","tag":{"website":"https:\/\/www.facebook.com\/OceanGardenTerrace\/"}}
{"lat":49.30719,"lon":-123.067,"amenity":"Accommodation","name":"Ocean Breeze Executive B&B","tag":{"website":"http:\/\/www.oceanbreezevancouver.com\/"}}
{"lat":49.14869,"lon":-122.0026,"amenity":"Accommodation","name":"Hampton Inn by Hilton Chilliwack","tag":{"website":"https:\/\/hamptoninn3.hilton.com\/en\/hotels\/british-columbia\/hampton-inn-by-hilton-chilliwack-YCWLRHX\/index.html"}}
{"lat":49.2782,"lon":-123.1149,"amenity":"Accommodation","name":"Hotel BLU Vancouver","tag":{"website":"http:\/\/www.hotelbluvancouver.com"}}
{"lat":49.28109,"lon":-123.106,"amenity":"Accommodation","name":"Skwachays Lodge & Art Gallery","tag":{"website":"http:\/\/www.skwachays.com"}}
{"lat":49.19245,"lon":-123.1277,"amenity":"Accommodation","name":"Days Inn Vancouver Airport","tag":{"website":"https:\/\/www.wyndhamhotels.com\/en-ca\/days-inn\/richmond-british-columbia\/days-inn-vancouver-airport\/overview?CID=LC:DI:20160927:Rio:Local&iata=00093796"}}
{"lat":49.28428,"lon":-123.1126,"amenity":"Accommodation","name":"Delta Hotels Vancouver Downtown Suites","tag":{"website":"https:\/\/www.marriott.com\/hotels\/travel\/yvrdv-delta-hotels-vancouver-downtown-suites\/?scid=bb1a189a-fec3-4d19-a255-54ba596febe2&y_source=1_MjgxODY1Ni03MTUtbG9jYXRpb24uZ29vZ2xlX3dlYnNpdGVfb3ZlcnJpZGU%3D"}}
{"lat":49.19102,"lon":-122.7839,"amenity":"Accommodation","name":"Holiday Inn Express & Suites Surrey","tag":{"website":"http:\/\/www.hiesurrey.com"}}
{"lat":49.03513,"lon":-122.2685,"amenity":"Accommodation","name":"Travelodge by Wyndham Abbostford Bakerview","tag":{"website":"https:\/\/www.wyndhamhotels.com\/en-ca\/travelodge\/abbotsford-british-columbia\/travelodge-abbotsford-bakerview\/overview?CID=LC:TL::GGL:RIO:National:54078&iata=00093796"}}
{"lat":49.28144,"lon":-123.0951,"amenity":"Accommodation","name":"Budget Inn Patricia Hotel","tag":{"website":"http:\/\/www.patriciahotel.ca"}}
{"lat":49.28685,"lon":-123.1308,"amenity":"Accommodation","name":"West End Guest House","tag":{"website":"http:\/\/www.westendguesthouse.com\/"}}
{"lat":49.27778,"lon":-123.1286,"amenity":"Accommodation","name":"Residence Inn by Marriott, Vancouver Downtown","tag":{"website":"http:\/\/www.marriott.com\/yvrdr"}}
{"lat":49.28579,"lon":-123.1246,"amenity":"Accommodation","name":"Carmana Plaza","tag":{"website":"https:\/\/www.carmanaplaza.com"}}
{"lat":49.28832,"lon":-123.1205,"amenity":"Accommodation","name":"Pinnacle Hotel Harbourfront Hotel","tag":{"website":"http:\/\/www.pinnacleharbourfronthotel.com"}}
{"lat":49.28765,"lon":-123.1204,"amenity":"Accommodation","name":"Vancouver Marriott Pinnacle Downtown","tag":{"website":"http:\/\/www.marriott.com\/hotels\/travel\/yvrdt-vancouver-marriott-pinnacle-downtown-hotel\/?scid=bb1a189a-fec3-4d19-a255-54ba596febe2"}}
{"lat":49.28131,"lon":-123.0449,"amenity":"Accommodation","name":"Atrium Inn Vancouver","tag":{"website":"http:\/\/www.atriuminn.ca\/"}}
{"lat":49.27906,"lon":-123.1228,"amenity":"Accommodation","name":"Hotel Belmont - Vancouver","tag":{"website":"https:\/\/all.accor.com\/hotel\/B9D9\/index.en.shtml"}}
{"lat":49.281,"lon":-123.1272,"amenity":"Accommodation","name":"Century Plaza Hotel & Spa","tag":{"website":"https:\/\/www.century-plaza.com\/"}}
{"lat":49.19176,"lon":-123.1206,"amenity":"Accommodation","name":"Abercorn Hotel, Trademark Collection by Wyndham (formerly Abercorn Inn Vancouver Airport Hotel)","tag":{"website":"http:\/\/www.abercorn-inn.com\/"}}
{"lat":49.23229,"lon":-123.0291,"amenity":"Accommodation","name":"Deluxe Hotel Vancouver","tag":{"website":"https:\/\/www.facebook.com\/DeluxeHotelVancouver\/"}}
{"lat":49.25369,"lon":-123.1548,"amenity":"Accommodation","name":"A Vancouver Traveller's B&B","tag":{"website":"http:\/\/www.vancouvertravellerbb.com"}}
{"lat":49.45731,"lon":-123.4968,"amenity":"Accommodation","name":"Langdale Heights RV Par 3 Golf Resort","tag":{"website":"https:\/\/www.langdaleheights.ca\/"}}
{"lat":49.19099,"lon":-123.1404,"amenity":"Accommodation","name":"Pacific Gateway Hotel at Vancouver Airport","tag":{"website":"https:\/\/www.pacificgatewayhotel.com\/"}}
{"lat":49.28725,"lon":-123.1289,"amenity":"Accommodation","name":"The Listel Hotel Vancouver","tag":{"website":"http:\/\/www.thelistelhotel.com\/"}}
{"lat":49.10515,"lon":-122.6903,"amenity":"Accommodation","name":"Ramada Langley Surrey","tag":{"website":"http:\/\/www.ramadalangleysurrey.com"}}
{"lat":49.28349,"lon":-123.1127,"amenity":"Accommodation","name":"Ramada Limited Downtown Vancouver","tag":{"website":"https:\/\/www.wyndhamhotels.com\/en-ca\/ramada\/vancouver-british-columbia\/ramada-inn-and-suites-downtown-vancouver\/overview?CID=LC:RA::GGL:RIO:National:11832&iata=00093796"}}
{"lat":49.19523,"lon":-123.1756,"amenity":"Accommodation","name":"Fairmont Vancouver Airport","tag":{"website":"http:\/\/www.fairmont.com\/vancouverairport"}}
{"lat":49.19973,"lon":-122.9123,"amenity":"Accommodation","name":"Inn at The Quay","tag":{"website":"http:\/\/www.innatthequay.com"}}
{"lat":49.11846,"lon":-122.737,"amenity":"Accommodation","name":"Holiday Inn & Suites Surrey East - Cloverdale","tag":{"website":"https:\/\/www.ihg.com\/holidayinn\/hotels\/us\/en\/surrey\/yvrsy\/hoteldetail?cm_mmc=GoogleMaps-_-HI-_-CA-_-YVRSY"}}
{"lat":49.31295,"lon":-123.0265,"amenity":"Accommodation","name":"Holiday Inn Hotel & Suites North Vancouver","tag":{"website":"http:\/\/www.hinorthvancouver.com"}}
{"lat":49.2359,"lon":-123.0399,"amenity":"Accommodation","name":"Cassandra Hotel","tag":{"website":"https:\/\/www.cassandrahotel.ca\/"}}
{"lat":49.16271,"lon":-122.6656,"amenity":"Accommodation","name":"Sandman Signature Hotel & Suites Langley","tag":{"website":"https:\/\/www.sandmanhotels.com\/locations\/british-columbia\/langley\/hotels\/signature-langley-zlan"}}
{"lat":49.27797,"lon":-123.1247,"amenity":"Accommodation","name":"Best Western Premier Chateau Granville Hotel & Suites","tag":{"website":"http:\/\/www.chateaugranville.com"}}
{"lat":49.28008,"lon":-123.1325,"amenity":"Accommodation","name":"Sunset Inn & Suites","tag":{"website":"https:\/\/www.sunsetinn.com"}}
{"lat":49.28843,"lon":-123.13,"amenity":"Accommodation","name":"Riviera Hotel","tag":{"website":"https:\/\/www.rivieravancouver.com\/"}}
{"lat":49.21639,"lon":-122.622,"amenity":"Accommodation","name":"Best Western Maple Ridge","tag":{"website":"https:\/\/www.bestwestern.com\/en_US\/book\/hotel-rooms.62127.html?iata=00171880&ssob=BLBWI0004G&cid=BLBWI0004G:google:gmb:62127"}}
{"lat":49.17008,"lon":-123.1444,"amenity":"Accommodation","name":"Quality Hotel Airport (South)","tag":{"website":"https:\/\/www.choicehotels.com\/british-columbia\/richmond\/quality-inn-hotels\/cn459?mc=llyxcncnnbl&pmf=canada"}}
{"lat":49.28627,"lon":-123.117,"amenity":"Accommodation","name":"Days Inn Vancouver Downtown","tag":{"website":"https:\/\/www.wyndhamhotels.com\/days-inn\/vancouver-british-columbia\/days-inn-vancouver-downtown\/overview?CID=LC:DI::GGL:RIO:National:04088"}}
{"lat":49.24034,"lon":-123.139,"amenity":"Accommodation","name":"Granville House B&B","tag":{"website":"https:\/\/www.facebook.com\/granvillebb\/"}}
{"lat":49.25661,"lon":-123.0067,"amenity":"Accommodation","name":"Delta Burnaby Hotel & Conference Centre","tag":{"website":"http:\/\/www.marriott.com\/hotels\/travel\/yvrdb-delta-hotels-burnaby-conference-center\/?scid=bb1a189a-fec3-4d19-a255-54ba596febe2"}}
{"lat":49.27566,"lon":-123.133,"amenity":"Accommodation","name":"910 Beach Apartment Hotel","tag":{"website":"http:\/\/www.910beach.com\/"}}
{"lat":49.18508,"lon":-123.1354,"amenity":"Accommodation","name":"Radisson Hotel Vancouver Airport","tag":{"website":"https:\/\/www.radisson.com\/richmond-hotel-bc-v6x3x9\/bcvanair"}}
{"lat":49.24852,"lon":-122.9113,"amenity":"Accommodation","name":"Burnaby Cariboo RV Park & Campground","tag":{"website":"https:\/\/bcrvpark.com\/"}}
{"lat":49.32454,"lon":-123.1313,"amenity":"Accommodation","name":"Capilano River RV Park","tag":{"website":"http:\/\/www.capilanoriverrvpark.com\/"}}
{"lat":49.00241,"lon":-122.7561,"amenity":"Accommodation","name":"Peace Arch Provincial Park","tag":{"website":"http:\/\/www.env.gov.bc.ca\/bcparks\/explore\/parkpgs\/peace_arch\/"}}
{"lat":49.28207,"lon":-123.1025,"amenity":"Accommodation","name":"Columbia Hotel","tag":{"website":"http:\/\/www.columbiahotel.ca"}}
{"lat":49.19077,"lon":-123.1334,"amenity":"Accommodation","name":"The Westin Wall Centre, Vancouver Airport","tag":{"website":"https:\/\/www.marriott.com\/hotels\/travel\/yvrwc-the-westin-wall-centre-vancouver-airport\/"}}
{"lat":49.38018,"lon":-123.345,"amenity":"Accommodation","name":"The Chocolate Suite by Cocoa West","tag":{"website":"http:\/\/www.cocoawest.com"}}
{"lat":49.31048,"lon":-123.0791,"amenity":"Accommodation","name":"Pinnacle Hotel At The Pier","tag":{"website":"http:\/\/pinnaclepierhotel.com\/"}}
{"lat":49.28838,"lon":-123.1224,"amenity":"Accommodation","name":"Coast Coal Harbour Hotel - Vancouver","tag":{"website":"https:\/\/www.coasthotels.com\/hotels\/bc\/vancouver\/coast-coal-harbour-hotel\/"}}
{"lat":49.28823,"lon":-123.1167,"amenity":"Accommodation","name":"Fairmont Pacific Rim","tag":{"website":"http:\/\/www.fairmont.com\/pacificrim"}}
{"lat":49.05357,"lon":-122.4935,"amenity":"Accommodation","name":"Alderbrook RV Park","tag":{"website":"http:\/\/alderbrookrvpark.ca\/"}}
{"lat":49.41877,"lon":-123.4814,"amenity":"Accommodation","name":"Soames Point Oceanfront Suite","tag":{"website":"http:\/\/www.soamespointbb.com"}}
{"lat":49.19198,"lon":-123.1306,"amenity":"Accommodation","name":"Versante Hotel","tag":{"website":"https:\/\/www.versantehotel.com\/"}}
{"lat":49.29333,"lon":-122.8567,"amenity":"Accommodation","name":"At The Beach Retreat","tag":{"website":"http:\/\/www.atthebeachretreat.com"}}
{"lat":49.28536,"lon":-123.1182,"amenity":"Accommodation","name":"Executive Hotel Le Soleil","tag":{"website":"http:\/\/www.hotellesoleil.com\/vancouver\/home\/"}}
{"lat":49.44236,"lon":-123.4296,"amenity":"Accommodation","name":"Ta Ch\u2019ila Provincial Park (Boya Lake)","tag":{"website":"http:\/\/www.env.gov.bc.ca\/bcparks\/explore\/parkpgs\/boya_lk\/"}}
{"lat":49.26001,"lon":-122.8931,"amenity":"Accommodation","name":"Cape Scott Provincial Park","tag":{"website":"http:\/\/www.env.gov.bc.ca\/bcparks\/explore\/parkpgs\/cape_scott\/"}}
{"lat":49.11,"lon":-122.65,"amenity":"Accommodation","name":"Lifty Life","tag":{"website":"https:\/\/www.liftylife.ca\/"}}
{"lat":49.35614,"lon":-123.2444,"amenity":"Accommodation","name":"Cypress Provincial Park","tag":{"website":"http:\/\/www.env.gov.bc.ca\/bcparks\/explore\/parkpgs\/cypress\/"}}
{"lat":49.34443,"lon":-122.4513,"amenity":"Accommodation","name":"Golden Ears Provincial Park","tag":{"website":"http:\/\/www.env.gov.bc.ca\/bcparks\/explore\/parkpgs\/golden_ears\/"}}
{"lat":49.22685,"lon":-122.3801,"amenity":"Accommodation","name":"Rolley Lake Provincial Park","tag":{"website":"http:\/\/www.env.gov.bc.ca\/bcparks\/explore\/parkpgs\/rolley_lk\/"}}
{"lat":49.30985,"lon":-123.0235,"amenity":"Accommodation","name":"Silver Beach Provincial Park","tag":{"website":"http:\/\/www.env.gov.bc.ca\/bcparks\/explore\/parkpgs\/silver_bch\/"}}
{"lat":49.09634,"lon":-122.0069,"amenity":"Accommodation","name":"Vedder River Campground","tag":{"website":"http:\/\/www.fvrd.ca\/EN\/main\/parks-recreation\/vedder-river-campground.html"}}
{"lat":49.28232,"lon":-123.1228,"amenity":"Accommodation","name":"The Spa at the Wedgewood","tag":{"website":"https:\/\/www.wedgewoodhotel.com\/wellness\/spa\/"}}
{"lat":49.02492,"lon":-123.0596,"amenity":"Accommodation","name":"Beach Grove Motel","tag":{"website":"http:\/\/www.beachgrovemotel.com\/"}}
{"lat":49.31957,"lon":-123.0122,"amenity":"Accommodation","name":"Riverfront Bed and Breakfast (North Vancouver)","tag":{"website":"http:\/\/www.riverfrontbnb.com"}}
{"lat":49.26462,"lon":-123.2586,"amenity":"Accommodation","name":"Pacific Spirit Hostel at UBC","tag":{"website":"http:\/\/suitesatubc.com\/accommodations\/pacific-spirit-hostel\/"}}
{"lat":49.17375,"lon":-122.8455,"amenity":"Accommodation","name":"George Point Inn (formerly Grouse Creek Hotel)","tag":{"website":"https:\/\/georgepointinn.com\/"}}
{"lat":49.2878,"lon":-123.1235,"amenity":"Accommodation","name":"Loden Hotel","tag":{"website":"http:\/\/www.theloden.com"}}
{"lat":49.3248,"lon":-123.1215,"amenity":"Accommodation","name":"SureStay Hotel by Best Western North Vancouver","tag":{"website":"http:\/\/www.bestwesterncapilano.com\/"}}
{"lat":49.1717,"lon":-123.1406,"amenity":"Accommodation","name":"Hilton Vancouver Airport","tag":{"website":"http:\/\/www3.hilton.com\/en\/hotels\/british-columbia\/hilton-vancouver-airport-YVRAHHF\/index.html"}}
{"lat":49.28032,"lon":-123.1265,"amenity":"Accommodation","name":"Sheraton Vancouver Wall Centre Hotel","tag":{"website":"https:\/\/www.marriott.com\/hotels\/travel\/yvrws-sheraton-vancouver-wall-centre\/"}}
{"lat":49.27793,"lon":-123.1139,"amenity":"Accommodation","name":"Hampton Inn & Suites by Hilton, Downtown Vancouver","tag":{"website":"http:\/\/www.hamptoninnvancouver.com\/"}}
{"lat":49.28642,"lon":-123.1274,"amenity":"Accommodation","name":"Blue Horizon Hotel","tag":{"website":"http:\/\/www.bluehorizonhotel.com"}}
{"lat":49.12157,"lon":-122.8446,"amenity":"Accommodation","name":"Motel 6 Surrey, BC (formerly Econo Lodge - Surrey)","tag":{"website":"https:\/\/www.motel6.com\/en\/home\/motels.bc.surrey.5741.html?lid=Local_Milestone_5741&travelAgentNumber=TA001305&corporatePlusNumber=CP792N5W&utm_source=google%20my%20business&utm_medium=listing&utm_campaign=visit%20website"}}
{"lat":49.28296,"lon":-123.1157,"amenity":"Accommodation","name":"St. Regis Hotel","tag":{"website":"http:\/\/www.stregishotel.com"}}
{"lat":49.17778,"lon":-123.1312,"amenity":"Accommodation","name":"Four Points by Sheraton Vancouver Airport","tag":{"website":"http:\/\/www.fourpointsvancouverairport.com\/?SWAQ=958P"}}
{"lat":49.28783,"lon":-123.1134,"amenity":"Accommodation","name":"Pan Pacific Vancouver","tag":{"website":"http:\/\/www.panpacificvancouver.com"}}
{"lat":49.2782,"lon":-123.1136,"amenity":"Accommodation","name":"Georgian Court Hotel","tag":{"website":"https:\/\/www.georgiancourthotelvancouver.com\/"}}
{"lat":49.13617,"lon":-123.0685,"amenity":"Accommodation","name":"Holiday Inn Express Hotel & Suites Riverport","tag":{"website":"http:\/\/www.hierichmond.com"}}
{"lat":49.26189,"lon":-123.098,"amenity":"Accommodation","name":"Best Western Plus Uptown Hotel","tag":{"website":"http:\/\/bestwesternplusuptown.hotels-vancouver.net\/en\/"}}
{"lat":49.27596,"lon":-123.1302,"amenity":"Accommodation","name":"Executive Hotel Vintage Park","tag":{"website":"http:\/\/www.executivehotels.net\/vancouver-downtown-boutique-hotel\/"}}
{"lat":49.28268,"lon":-123.1239,"amenity":"Accommodation","name":"The Sutton Place Hotel Vancouver","tag":{"website":"https:\/\/www.suttonplace.com\/hotels\/sutton-place-hotel-vancouver-van"}}
{"lat":49.23541,"lon":-122.8767,"amenity":"Accommodation","name":"SureStay Plus Hotel by Best Western Coquitlam","tag":{"website":"https:\/\/www.bestwestern.com\/en_US\/book\/hotels-in-coquitlam\/surestay-plus-hotel-by-best-western-coquitlam\/propertyCode.52046.html"}}
{"lat":49.1851,"lon":-123.1069,"amenity":"Accommodation","name":"Accent Inn - Vancouver Airport","tag":{"website":"https:\/\/www.accentinns.com\/locations\/vancouver-airport-hotel\/"}}
{"lat":49.29178,"lon":-123.1356,"amenity":"Accommodation","name":"Times Square Suites Hotel","tag":{"website":"http:\/\/www.timessquaresuites.com"}}
{"lat":49.13748,"lon":-123.1945,"amenity":"Accommodation","name":"The Seabreeze Guest House","tag":{"website":"http:\/\/www.theseabreeze.net"}}
{"lat":49.27549,"lon":-123.0665,"amenity":"Accommodation","name":"Bee & Thistle Guest House","tag":{"website":"http:\/\/beeandthistle.ca\/"}}
{"lat":49.25443,"lon":-123.1916,"amenity":"Accommodation","name":"House On Dunbar B&B","tag":{"website":"http:\/\/houseondunbarbandb.com\/"}}
{"lat":49.19194,"lon":-122.7838,"amenity":"Accommodation","name":"Four Points by Sheraton Surrey","tag":{"website":"https:\/\/www.marriott.com\/hotels\/travel\/yvrsf-four-points-surrey\/"}}
{"lat":49.15871,"lon":-122.0333,"amenity":"Accommodation","name":"The Fraser River's Edge B&B Lodge","tag":{"website":"http:\/\/www.fraserriversedge.com"}}
{"lat":49.16467,"lon":-122.5844,"amenity":"Accommodation","name":"Fort Langley B&B","tag":{"website":"http:\/\/www.fortlangleybedandbreakfast.com"}}
{"lat":49.138,"lon":-122.6249,"amenity":"Accommodation","name":"Mt. Bakerview Bed and Breakfast","tag":{"website":"http:\/\/www.mtbakerviewbandb.ca"}}
{"lat":49.29015,"lon":-123.1425,"amenity":"Accommodation","name":"English Bay Inn","tag":{"website":"http:\/\/www.englishbayinn.com\/"}}
{"lat":49.26383,"lon":-123.1972,"amenity":"Accommodation","name":"Point Grey Guest House","tag":{"website":"http:\/\/www.pointgreyguesthouse.com"}}
{"lat":49.27585,"lon":-123.114,"amenity":"Accommodation","name":"JW Marriott Parq Vancouver","tag":{"website":"https:\/\/www.marriott.com\/hotels\/travel\/yvrjw-jw-marriott-parq-vancouver\/?scid=bb1a189a-fec3-4d19-a255-54ba596febe2"}}
{"lat":49.27567,"lon":-123.1138,"amenity":"Accommodation","name":"the DOUGLAS, Autograph Collection","tag":{"website":"http:\/\/thedouglasvancouver.com\/?scid=bb1a189a-fec3-4d19-a255-54ba596febe2"}}
{"lat":49.16307,"lon":-123.136,"amenity":"Accommodation","name":"Panda Pod Hotel","tag":{"website":"http:\/\/www.pandapod.ca\/"}}
{"lat":49.25928,"lon":-123.1141,"amenity":"Accommodation","name":"Cambie Lodge Bed & Breakfast","tag":{"website":"http:\/\/www.cambie.beautifulguesthouse.ca\/"}}
{"lat":49.28561,"lon":-123.1158,"amenity":"Accommodation","name":"EXchange Hotel Vancouver","tag":{"website":"http:\/\/exchangehotelvan.com\/"}}
{"lat":49.02215,"lon":-122.8002,"amenity":"Accommodation","name":"Star of the Sea B&B","tag":{"website":"http:\/\/www.staroftheseabandb.com\/"}}
{"lat":49.29195,"lon":-122.8458,"amenity":"Accommodation","name":"Nature's Door","tag":{"website":"http:\/\/www.naturesdoor.ca"}}
{"lat":49.20486,"lon":-123.1307,"amenity":"Accommodation","name":"Coast Vancouver Airport Hotel","tag":{"website":"https:\/\/www.coasthotels.com\/hotels\/bc\/vancouver\/coast-vancouver-airport-hotel\/"}}
{"lat":49.07519,"lon":-122.816,"amenity":"Accommodation","name":"Peace Arch RV Park","tag":{"website":"http:\/\/www.peacearchrvpark.ca\/"}}
{"lat":49.26203,"lon":-123.2412,"amenity":"Accommodation","name":"TRIUMF House","tag":{"website":"http:\/\/www.triumfhouse.ca"}}
{"lat":49.27289,"lon":-123.2032,"amenity":"Accommodation","name":"Hostelling International (YHA) - HI - Vancouver Jericho Beach","tag":{"website":"http:\/\/www.hihostels.ca\/vancouverjericho"}}
{"lat":49.04178,"lon":-122.787,"amenity":"Accommodation","name":"Grandview Inn","tag":{"website":"http:\/\/grandviewhotel.ca\/"}}
{"lat":49.03899,"lon":-122.2682,"amenity":"Accommodation","name":"Coast Abbotsford Hotel & Suites","tag":{"website":"https:\/\/www.coasthotels.com\/hotels\/bc\/abbotsford\/coast-abbotsford-hotel-and-suites\/"}}
{"lat":49.02411,"lon":-122.8124,"amenity":"Accommodation","name":"Beachside Sausalito B&B-Guest Suites","tag":{"website":"http:\/\/www.sausalitobb.com\/"}}
{"lat":49.00242,"lon":-122.7384,"amenity":"Accommodation","name":"Pacific Border RV Park","tag":{"website":"http:\/\/www.pacificborderrvpark.com\/"}}
{"lat":49.03633,"lon":-122.2691,"amenity":"Accommodation","name":"Super 8 - Abbotsford","tag":{"website":"https:\/\/www.wyndhamhotels.com\/super-8\/abbotsford-british-columbia\/super-8-abbotsford-bc\/overview?CID=LC:SE::GGL:RIO:National:13749&iata=00065402"}}
{"lat":49.17889,"lon":-122.5827,"amenity":"Accommodation","name":"Fort Langley Camping","tag":{"website":"https:\/\/www.fortcamping.com\/"}}
{"lat":49.38115,"lon":-123.3301,"amenity":"Accommodation","name":"Bowen Island Lodge","tag":{"website":"http:\/\/bowenislandlodge.ca\/"}}
{"lat":49.20621,"lon":-122.8007,"amenity":"Accommodation","name":"Dogwood Campgrounds & RV Park","tag":{"website":"https:\/\/www.facebook.com\/pages\/Dogwood-Campground-RV-Park\/259276971072422"}}
{"lat":49.28624,"lon":-123.1312,"amenity":"Accommodation","name":"Barclay House","tag":{"website":"http:\/\/www.barclayhouse.com\/"}}
{"lat":49.3735,"lon":-123.2747,"amenity":"Accommodation","name":"Horseshoe Bay Motel","tag":{"website":"http:\/\/www.horseshoebaymotel.ca"}}
{"lat":49.18055,"lon":-123.1703,"amenity":"Accommodation","name":"Langara Fishing Lodge","tag":{"website":"http:\/\/www.langara.com\/langara-fishing-lodge\/"}}
{"lat":49.04572,"lon":-122.4081,"amenity":"Accommodation","name":"Brookside Inn","tag":{"website":"https:\/\/brooksideinn.ca\/"}}
{"lat":49.43644,"lon":-123.479,"amenity":"Accommodation","name":"Arcturus Retreat B&B","tag":{"website":"https:\/\/arcturusretreat.ca\/"}}
{"lat":49.15367,"lon":-123.1628,"amenity":"Accommodation","name":"The Stone Hedge B&B","tag":{"website":"http:\/\/thestonehedge.ca\/"}}
{"lat":49.12576,"lon":-123.1862,"amenity":"Accommodation","name":"Steveston Hotel","tag":{"website":"https:\/\/www.stevestonhotel.ca\/"}}
{"lat":49.27991,"lon":-122.9251,"amenity":"Accommodation","name":"Simon Fraser University-Conference & Guest Accommodations","tag":{"website":"http:\/\/www.sfu.ca\/stayhere"}}
{"lat":49.28857,"lon":-123.1427,"amenity":"Accommodation","name":"The Sylvia Hotel","tag":{"website":"http:\/\/sylviahotel.com"}}
{"lat":49.34444,"lon":-123.1108,"amenity":"Accommodation","name":"Thistledown House B&B","tag":{"website":"http:\/\/www.thistle-down.com\/"}}
{"lat":49.28325,"lon":-123.1277,"amenity":"Accommodation","name":"O Canada' House B&B","tag":{"website":"http:\/\/www.ocanadahouse.com"}}
{"lat":49.28054,"lon":-123.1258,"amenity":"Accommodation","name":"Club Intrawest - Vancouver","tag":{"website":"https:\/\/embarcresorts.com\/embarc-vancouver.html"}}
{"lat":49.32121,"lon":-122.8556,"amenity":"Accommodation","name":"Anmore Camp & RV Park","tag":{"website":"https:\/\/www.anmorecamp-rv.ca\/"}}
{"lat":49.10814,"lon":-122.6825,"amenity":"Accommodation","name":"Hampton Inn & Suites by Hilton - Langley & Surrey","tag":{"website":"http:\/\/www.hamptoninnlangley.com"}}
{"lat":49.10436,"lon":-122.6632,"amenity":"Accommodation","name":"West Country Hotel","tag":{"website":"http:\/\/www.thewestcountryhotel.com"}}
{"lat":49.16148,"lon":-122.6558,"amenity":"Accommodation","name":"Holiday Inn Express Hotel & Suites Langley","tag":{"website":"http:\/\/www.hiexpress.com\/langleybc"}}
{"lat":49.24894,"lon":-123.0817,"amenity":"Accommodation","name":"Kings Corner B&B","tag":{"website":"http:\/\/www.kingscornerbb.com\/home.html"}}
{"lat":49.23044,"lon":-123.0039,"amenity":"Accommodation","name":"Element Vancouver Metrotown","tag":{"website":"http:\/\/www.elementvancouvermetrotown.com"}}
{"lat":49.28699,"lon":-123.1242,"amenity":"Accommodation","name":"Paradox Hotel Vancouver","tag":{"website":"https:\/\/www.paradoxhotels.com\/vancouver"}}
{"lat":49.03986,"lon":-122.3386,"amenity":"Accommodation","name":"Ramada by Wyndham Abbotsford","tag":{"website":"https:\/\/www.wyndhamhotels.com\/en-ca\/ramada\/abbotsford-british-columbia\/ramada-by-wyndham-abbotsford\/overview"}}
{"lat":49.27466,"lon":-123.1225,"amenity":"Accommodation","name":"Opus Hotel Vancouver","tag":{"website":"https:\/\/vancouver.opushotel.com\/"}}
{"lat":49.19624,"lon":-123.1271,"amenity":"Accommodation","name":"River Rock Casino & Resort","tag":{"website":"http:\/\/www.riverrock.com\/"}}
{"lat":49.27013,"lon":-123.2493,"amenity":"Accommodation","name":"Gage Suites at UBC","tag":{"website":"http:\/\/vancouver.housing.ubc.ca\/residences\/walter-gage\/"}}
