{"lat":49.27122,"lon":-123.1365,"amenity":"Activities_Attractions","name":"Into the Wilderness","tag":{"website":"https:\/\/www.intothewilderness.ca\/"}}
{"lat":49.31387,"lon":-123.0777,"amenity":"Activities_Attractions","name":"Orca Wind Sail Charters","tag":{"website":"http:\/\/www.orcawindsailcharters.com"}}
{"lat":49.27172,"lon":-123.1365,"amenity":"Activities_Attractions","name":"North West Coastal Charters","tag":{"website":"http:\/\/www.northwestcoastalcharters.com"}}
{"lat":49.31068,"lon":-123.0835,"amenity":"Activities_Attractions","name":"Outdoor Explore Adventure Co.","tag":{"website":"http:\/\/outdoor-explore.com\/"}}
{"lat":49.28561,"lon":-123.112,"amenity":"Activities_Attractions","name":"Van City Bikes and Adventure Co.","tag":{"website":"http:\/\/www.vancitybikes.com"}}
{"lat":49.04751,"lon":-122.3608,"amenity":"Activities_Attractions","name":"Ravens Brewing Company","tag":{"website":"https:\/\/ravensbrewing.com\/"}}
{"lat":49.2785,"lon":-122.8487,"amenity":"Activities_Attractions","name":"Yellow Dog Brewing Co.","tag":{"website":"https:\/\/yellowdogbeer.com\/"}}
{"lat":49.28974,"lon":-123.1238,"amenity":"Activities_Attractions","name":"Nature Photo Hikes","tag":{"website":"http:\/\/naturephotohikes.com"}}
{"lat":49.21445,"lon":-122.7009,"amenity":"Activities_Attractions","name":"Sierra Helicopters","tag":{"website":"http:\/\/www.sierrahelicopters.com"}}
{"lat":49.07055,"lon":-122.1603,"amenity":"Activities_Attractions","name":"Chads Fishing Charters","tag":{"website":"http:\/\/www.chadsfishingcharters.com"}}
{"lat":49.28429,"lon":-123.0694,"amenity":"Activities_Attractions","name":"Odd Society Spirits","tag":{"website":"http:\/\/oddsocietyspirits.com"}}
{"lat":49.28284,"lon":-123.1097,"amenity":"Activities_Attractions","name":"Vancouver Mysteries","tag":{"website":"https:\/\/vancouvermysteries.com\/"}}
{"lat":49.28172,"lon":-123.1095,"amenity":"Activities_Attractions","name":"AIBC Architectural Walking Tours","tag":{"website":"https:\/\/aibc.ca\/news-events\/signature-events-programs\/architectural-walking-tours\/vancouver-architectural-walking-tours\/"}}
{"lat":49.28565,"lon":-123.112,"amenity":"Activities_Attractions","name":"Vancouver Brewery Tours","tag":{"website":"http:\/\/www.vancouverbrewerytours.com"}}
{"lat":49.27563,"lon":-123.1324,"amenity":"Activities_Attractions","name":"Long Table Distillery","tag":{"website":"http:\/\/www.longtabledistillery.com"}}
{"lat":49.04005,"lon":-122.2775,"amenity":"Activities_Attractions","name":"Play Abby - Indoor Playground and Laser Tag","tag":{"website":"https:\/\/www.playabby.com\/abbotsford"}}
{"lat":49.28605,"lon":-123.1176,"amenity":"Activities_Attractions","name":"Yervana Outdoor Adventures","tag":{"website":"http:\/\/www.yervana.com"}}
{"lat":49.15417,"lon":-123.1807,"amenity":"Activities_Attractions","name":"Thrangu Monastery","tag":{"website":"http:\/\/thrangumonastery.org\/"}}
{"lat":49.01196,"lon":-122.6586,"amenity":"Activities_Attractions","name":"Langley 204 Horseback Riding","tag":{"website":"http:\/\/www.langley204.com"}}
{"lat":49.28689,"lon":-123.1221,"amenity":"Activities_Attractions","name":"Discover Canada Tours","tag":{"website":"http:\/\/www.discovercanadatours.com"}}
{"lat":49.28275,"lon":-123.1206,"amenity":"Activities_Attractions","name":"Wild BC Tours & Guiding","tag":{"website":"http:\/\/www.wildbc.com"}}
{"lat":49.24105,"lon":-122.5695,"amenity":"Activities_Attractions","name":"WildPlay Maple Ridge","tag":{"website":"https:\/\/wildplay.com\/maple-ridge\/"}}
{"lat":49.28373,"lon":-123.11,"amenity":"Activities_Attractions","name":"Vancouver Food Tour","tag":{"website":"http:\/\/www.vancouverfoodtour.com\/"}}
{"lat":49.26327,"lon":-123.251,"amenity":"Activities_Attractions","name":"Beaty Biodiversity Museum","tag":{"website":"http:\/\/www.beatymuseum.ubc.ca"}}
{"lat":49.27253,"lon":-123.1347,"amenity":"Activities_Attractions","name":"Vancouver Sailing Club","tag":{"website":"https:\/\/www.facebook.com\/vancouversailingclub\/"}}
{"lat":49.26931,"lon":-123.1189,"amenity":"Activities_Attractions","name":"Deep Respect Fishing Charters","tag":{"website":"http:\/\/deeprespect.net"}}
{"lat":49.27245,"lon":-123.1362,"amenity":"Activities_Attractions","name":"Aquatic Ventures","tag":{"website":"http:\/\/www.fishingchartervancouver.com"}}
{"lat":49.01591,"lon":-122.2817,"amenity":"Activities_Attractions","name":"Maan Farms","tag":{"website":"http:\/\/www.maanfarms.com\/"}}
{"lat":49.18461,"lon":-122.5012,"amenity":"Activities_Attractions","name":"Raptor Ridge","tag":{"website":"http:\/\/www.raptorsridge.com\/"}}
{"lat":49.02636,"lon":-122.8098,"amenity":"Activities_Attractions","name":"Natural West Coast Adventures - Kayak Fishing","tag":{"website":"http:\/\/www.kayak.bc.ca"}}
{"lat":49.28276,"lon":-123.1205,"amenity":"Activities_Attractions","name":"Vancouver Art Gallery","tag":{"website":"http:\/\/www.vanartgallery.bc.ca"}}
{"lat":49.30595,"lon":-123.0088,"amenity":"Activities_Attractions","name":"Laserdome Plus","tag":{"website":"http:\/\/www.laserdome.net"}}
{"lat":49.01518,"lon":-122.5265,"amenity":"Activities_Attractions","name":"Blackwood Lane Vineyards & Winery","tag":{"website":"http:\/\/www.blackwoodlanewinery.com"}}
{"lat":49.2843,"lon":-123.1191,"amenity":"Activities_Attractions","name":"Cycle City Tours","tag":{"website":"http:\/\/www.cyclevancouver.com"}}
{"lat":49.30071,"lon":-123.1303,"amenity":"Activities_Attractions","name":"Vancouver Aquarium","tag":{"website":"http:\/\/www.vanaqua.org"}}
{"lat":49.26194,"lon":-123.1386,"amenity":"Activities_Attractions","name":"Pirate Adventures","tag":{"website":"http:\/\/pirateadventures.ca"}}
{"lat":49.1254,"lon":-123.1808,"amenity":"Activities_Attractions","name":"Steveston Tram","tag":{"website":"https:\/\/www.richmond.ca\/stevestontram"}}
{"lat":49.12626,"lon":-123.1871,"amenity":"Activities_Attractions","name":"Gulf of Georgia Cannery National Historic Site","tag":{"website":"http:\/\/www.gulfofgeorgiacannery.org"}}
{"lat":49.28465,"lon":-123.1124,"amenity":"Activities_Attractions","name":"Vancouver Lookout","tag":{"website":"http:\/\/www.vancouverlookout.com"}}
{"lat":49.28587,"lon":-123.124,"amenity":"Activities_Attractions","name":"CHI, the Spa at Shangri-la","tag":{"website":"http:\/\/www.shangri-la.com\/vancouver\/shangrila\/health-leisure\/chi-the-spa\/"}}
{"lat":49.27174,"lon":-123.1367,"amenity":"Activities_Attractions","name":"Vancouver Water Adventures","tag":{"website":"http:\/\/www.vancouverwateradventures.com"}}
{"lat":49.27317,"lon":-123.1361,"amenity":"Activities_Attractions","name":"Granville Island Boat Rentals","tag":{"website":"http:\/\/www.boatrentalsvancouver.com"}}
{"lat":49.21289,"lon":-123.1385,"amenity":"Activities_Attractions","name":"Historic Joy Kogawa House Society","tag":{"website":"https:\/\/www.kogawahouse.com\/wp\/"}}
{"lat":49.2766,"lon":-123.1304,"amenity":"Activities_Attractions","name":"Fans of Vancouver","tag":{"website":"http:\/\/www.fansofvancouver.com"}}
{"lat":49.14982,"lon":-122.3122,"amenity":"Activities_Attractions","name":"Double Header Sport Fishing","tag":{"website":"http:\/\/www.riverfishingbc.com"}}
{"lat":49.31382,"lon":-123.0785,"amenity":"Activities_Attractions","name":"Viva Tours & Charters","tag":{"website":"http:\/\/vivanbc.com"}}
{"lat":49.30799,"lon":-123.072,"amenity":"Activities_Attractions","name":"Canadian Outback Rafting","tag":{"website":"http:\/\/www.CanadianOutbackRafting.com"}}
{"lat":49.27226,"lon":-123.1364,"amenity":"Activities_Attractions","name":"Sea Vancouver","tag":{"website":"https:\/\/seavancouver.com"}}
{"lat":49.19591,"lon":-123.1768,"amenity":"Activities_Attractions","name":"Dufry-WDFG Vancouver LP","tag":{"website":"https:\/\/vancouver.shopdutyfree.com\/"}}
{"lat":49.35895,"lon":-123.267,"amenity":"Activities_Attractions","name":"Scenic Rush Driving Experiences","tag":{"website":"http:\/\/www.ScenicRush.com"}}
{"lat":49.28315,"lon":-123.1188,"amenity":"Activities_Attractions","name":"Tour Guys Vancouver","tag":{"website":"http:\/\/www.tourguys.ca\/#!vancouver\/c55x"}}
{"lat":49.27109,"lon":-123.1361,"amenity":"Activities_Attractions","name":"Prince of Whales Whale Watching - Vancouver","tag":{"website":"https:\/\/princeofwhales.com\/whale-watching-adventure-tours\/location\/vancouver\/"}}
{"lat":49.31001,"lon":-123.0338,"amenity":"Activities_Attractions","name":"Bridge Brewing Company","tag":{"website":"http:\/\/www.bridgebrewing.com"}}
{"lat":49.26172,"lon":-122.812,"amenity":"Activities_Attractions","name":"Tightlines River Guiding Inc","tag":{"website":"https:\/\/www.facebook.com\/tightlinesriverguiding\/"}}
{"lat":49.28015,"lon":-123.101,"amenity":"Activities_Attractions","name":"Historical Chinatown Tours","tag":{"website":"http:\/\/www.chinatowngirl.ca"}}
{"lat":49.37471,"lon":-123.2744,"amenity":"Activities_Attractions","name":"First Fish Charters","tag":{"website":"https:\/\/www.firstfishcharters.ca\/"}}
{"lat":49.27589,"lon":-123.1187,"amenity":"Activities_Attractions","name":"My Spa Beauty & Wellness Centre","tag":{"website":"http:\/\/myspabc.ca\/"}}
{"lat":49.03291,"lon":-122.8029,"amenity":"Activities_Attractions","name":"Cheryl's Trading Post","tag":{"website":"http:\/\/www.cherylstradingpost.com"}}
{"lat":49.07864,"lon":-122.5156,"amenity":"Activities_Attractions","name":"Lodestar Outfitters","tag":{"website":"http:\/\/www.lodestaroutfitters.com"}}
{"lat":49.02446,"lon":-122.6488,"amenity":"Activities_Attractions","name":"Glen Valley Stables","tag":{"website":"https:\/\/glenvalleystables.com\/"}}
{"lat":49.37369,"lon":-123.2743,"amenity":"Activities_Attractions","name":"Sea Dragon Charters","tag":{"website":"http:\/\/seadragoncharters.com\/"}}
{"lat":49.28507,"lon":-123.1194,"amenity":"Activities_Attractions","name":"Landsea Tours & Adventures","tag":{"website":"https:\/\/vancouvertours.com"}}
{"lat":49.45774,"lon":-123.2376,"amenity":"Activities_Attractions","name":"Mosaic Earth Travel","tag":{"website":"https:\/\/www.mosaicearth.ca\/"}}
{"lat":49.11316,"lon":-122.5372,"amenity":"Activities_Attractions","name":"Krause Berry Farms & Estate Winery","tag":{"website":"http:\/\/www.krauseberryfarms.com"}}
{"lat":49.27281,"lon":-123.1364,"amenity":"Activities_Attractions","name":"Vancouver Fishing","tag":{"website":"http:\/\/www.fishinginvancouver.ca"}}
{"lat":49.04918,"lon":-122.4513,"amenity":"Activities_Attractions","name":"Campbell's Gold Honey Farm & Meadery","tag":{"website":"https:\/\/campbellsgold.com\/"}}
{"lat":49.12973,"lon":-122.2995,"amenity":"Activities_Attractions","name":"S.T.S Guiding Service - Freshwater Fishing","tag":{"website":"http:\/\/www.guidebc.com"}}
{"lat":49.28278,"lon":-123.0373,"amenity":"Activities_Attractions","name":"Playland Amusement Park","tag":{"website":"https:\/\/www.pne.ca\/playland\/"}}
{"lat":49.29351,"lon":-123.1339,"amenity":"Activities_Attractions","name":"Harbour Cruises & Events","tag":{"website":"http:\/\/www.boatcruises.com"}}
{"lat":49.30898,"lon":-123.0186,"amenity":"Activities_Attractions","name":"Maplewood Farm","tag":{"website":"http:\/\/www.maplewoodfarm.bc.ca"}}
{"lat":49.23108,"lon":-122.8988,"amenity":"Activities_Attractions","name":"Van Dop Gallery","tag":{"website":"http:\/\/vandopgallery.com\/"}}
{"lat":49.26638,"lon":-123.2597,"amenity":"Activities_Attractions","name":"Nitobe Memorial Garden","tag":{"website":"http:\/\/botanicalgarden.ubc.ca\/visit\/nitobe-memorial-garden\/"}}
{"lat":49.2283,"lon":-122.9996,"amenity":"Activities_Attractions","name":"Metropolis at Metrotown","tag":{"website":"http:\/\/www.metropolisatmetrotown.com"}}
{"lat":49.03138,"lon":-122.8416,"amenity":"Activities_Attractions","name":"Mind and Matter Art Gallery","tag":{"website":"http:\/\/www.mindandmatterart.com"}}
{"lat":49.29164,"lon":-123.1293,"amenity":"Activities_Attractions","name":"Magic Yacht Tours","tag":{"website":"https:\/\/www.magicyachtcharters.com\/"}}
{"lat":49.24337,"lon":-123.1173,"amenity":"Activities_Attractions","name":"Van Dusen Bloedel Conservatory","tag":{"website":"https:\/\/vancouver.ca\/parks-recreation-culture\/bloedel-conservatory.aspx"}}
{"lat":49.10418,"lon":-122.6537,"amenity":"Activities_Attractions","name":"Mural Walk Langley City","tag":{"website":"https:\/\/www.discoverlangleycity.com\/mural-walks"}}
{"lat":49.2722,"lon":-123.1047,"amenity":"Activities_Attractions","name":"Creekside Kayaks","tag":{"website":"http:\/\/www.creeksidekayaks.ca\/"}}
{"lat":49.25392,"lon":-123.2511,"amenity":"Activities_Attractions","name":"UBC Botanical Garden","tag":{"website":"http:\/\/www.botanicalgarden.ubc.ca"}}
{"lat":49.23903,"lon":-123.1346,"amenity":"Activities_Attractions","name":"VanDusen Botanical Garden","tag":{"website":"https:\/\/vancouver.ca\/parks-recreation-culture\/vandusen-botanical-garden.aspx"}}
{"lat":49.27306,"lon":-123.1252,"amenity":"Activities_Attractions","name":"Lotus Land Tours","tag":{"website":"https:\/\/www.facebook.com\/vancouvernatureadventures\/"}}
{"lat":49.27211,"lon":-123.1358,"amenity":"Activities_Attractions","name":"Granville Island","tag":{"website":"http:\/\/www.granvilleisland.com"}}
{"lat":49.2695,"lon":-123.2594,"amenity":"Activities_Attractions","name":"Museum of Anthropology","tag":{"website":"http:\/\/www.moa.ubc.ca"}}
{"lat":49.27752,"lon":-123.1474,"amenity":"Activities_Attractions","name":"Vancouver Maritime Museum","tag":{"website":"https:\/\/vanmaritime.com\/"}}
{"lat":49.27611,"lon":-123.1444,"amenity":"Activities_Attractions","name":"Museum of Vancouver","tag":{"website":"http:\/\/www.museumofvancouver.ca"}}
{"lat":49.27076,"lon":-123.1367,"amenity":"Activities_Attractions","name":"Vancouver TheatreSports League","tag":{"website":"https:\/\/theimprovcentre.ca\/"}}
{"lat":49.32621,"lon":-122.9487,"amenity":"Activities_Attractions","name":"Deep Cove Kayak","tag":{"website":"http:\/\/www.deepcovekayak.com\/"}}
{"lat":49.26134,"lon":-123.1385,"amenity":"Activities_Attractions","name":"Arts Club Theatre Company","tag":{"website":"http:\/\/www.artsclub.com\/"}}
{"lat":49.27673,"lon":-123.1422,"amenity":"Activities_Attractions","name":"Bard on the Beach Shakespeare Festival","tag":{"website":"http:\/\/www.bardonthebeach.org"}}
{"lat":49.37954,"lon":-123.3336,"amenity":"Activities_Attractions","name":"Bowen eBikes","tag":{"website":"https:\/\/bowenebikes.ca\/"}}
{"lat":49.06508,"lon":-122.8421,"amenity":"Activities_Attractions","name":"Historic Stewart Farm","tag":{"website":"http:\/\/www.surrey.ca\/stewartfarm"}}
{"lat":49.11473,"lon":-123.152,"amenity":"Activities_Attractions","name":"London Heritage Farm","tag":{"website":"https:\/\/www.richmond.ca\/londonfarm"}}
{"lat":49.02161,"lon":-122.6243,"amenity":"Activities_Attractions","name":"Chaberton Estate Winery & Bacchus Bistro","tag":{"website":"http:\/\/www.chabertonwinery.com"}}
{"lat":49.28205,"lon":-123.0982,"amenity":"Activities_Attractions","name":"Vancouver Police Museum","tag":{"website":"http:\/\/www.vancouverpolicemuseum.ca"}}
{"lat":49.2776,"lon":-123.1126,"amenity":"Activities_Attractions","name":"BC Sports Hall of Fame","tag":{"website":"https:\/\/bcsportshall.com\/"}}
{"lat":49.03044,"lon":-122.6377,"amenity":"Activities_Attractions","name":"Township 7 Vineyards & Winery - Langley","tag":{"website":"https:\/\/www.township7.com\/langley\/"}}
{"lat":49.09209,"lon":-122.4926,"amenity":"Activities_Attractions","name":"Greater Vancouver Zoo","tag":{"website":"http:\/\/www.gvzoo.com"}}
{"lat":49.28681,"lon":-123.1221,"amenity":"Activities_Attractions","name":"West Trek Tours","tag":{"website":"http:\/\/www.westtrek.com"}}
{"lat":49.28933,"lon":-123.1086,"amenity":"Activities_Attractions","name":"Canada Place","tag":{"website":"http:\/\/www.canadaplace.ca"}}
{"lat":49.1685,"lon":-122.5753,"amenity":"Activities_Attractions","name":"BC Farm Museum","tag":{"website":"http:\/\/bcfma.com\/"}}
{"lat":49.16217,"lon":-122.8424,"amenity":"Activities_Attractions","name":"Bear Creek Park Train","tag":{"website":"http:\/\/www.bctrains.com"}}
{"lat":49.13554,"lon":-122.0398,"amenity":"Activities_Attractions","name":"Happy Days Goat Dairy","tag":{"website":"http:\/\/www.happydaysdairy.com"}}
{"lat":49.13351,"lon":-122.5639,"amenity":"Activities_Attractions","name":"Driediger Farms Market","tag":{"website":"http:\/\/www.driedigerfarms.com"}}
{"lat":49.27339,"lon":-123.1036,"amenity":"Activities_Attractions","name":"Science World at Telus World of Science","tag":{"website":"http:\/\/scienceworld.ca"}}
{"lat":49.23963,"lon":-122.9656,"amenity":"Activities_Attractions","name":"Burnaby Village Museum","tag":{"website":"http:\/\/www.burnabyvillagemuseum.ca"}}
{"lat":49.22574,"lon":-123.1598,"amenity":"Activities_Attractions","name":"Chromer Sport Fishing","tag":{"website":"https:\/\/www.chromersportfishing.com"}}
{"lat":49.31025,"lon":-123.0806,"amenity":"Activities_Attractions","name":"Polygon Gallery","tag":{"website":"https:\/\/thepolygon.ca\/"}}
{"lat":49.26903,"lon":-123.1049,"amenity":"Activities_Attractions","name":"Pacific Coastal Cruises & Tours","tag":{"website":"https:\/\/www.coastalcruises.ca\/"}}
{"lat":49.13556,"lon":-122.3046,"amenity":"Activities_Attractions","name":"Mission Museum","tag":{"website":"http:\/\/www.missionmuseum.com"}}
{"lat":49.28016,"lon":-123.1148,"amenity":"Activities_Attractions","name":"Walkable Tours","tag":{"website":"http:\/\/www.walkabletours.com"}}
{"lat":49.2633,"lon":-123.1298,"amenity":"Activities_Attractions","name":"Salmon n' Bannock","tag":{"website":"https:\/\/www.salmonandbannock.net\/"}}
{"lat":49.03243,"lon":-122.7514,"amenity":"Activities_Attractions","name":"Darts Hill Garden Park","tag":{"website":"http:\/\/www.dartshill.ca"}}
{"lat":49.32535,"lon":-123.0776,"amenity":"Activities_Attractions","name":"West Coast Canyoning Adventure","tag":{"website":"https:\/\/www.wccanyoning.com\/"}}
{"lat":49.3113,"lon":-123.0805,"amenity":"Activities_Attractions","name":"North Vancouver Museum and Archives (MONOVA)","tag":{"website":"https:\/\/monova.ca\/"}}
{"lat":49.2847,"lon":-123.1119,"amenity":"Activities_Attractions","name":"Vancouver City Passports","tag":{"website":"https:\/\/www.citypassports.com\/product\/Vancouver---1-Year-Access"}}
{"lat":49.17149,"lon":-122.5796,"amenity":"Activities_Attractions","name":"The Fort Finery","tag":{"website":"https:\/\/www.juliet925.ca"}}
{"lat":49.27037,"lon":-123.0831,"amenity":"Activities_Attractions","name":"A.E. Vancouver Private Tours & Charters Inc.","tag":{"website":"http:\/\/www.vancouverprivatetours.com"}}
{"lat":49.2691,"lon":-123.119,"amenity":"Activities_Attractions","name":"Bites On Fishing Charters","tag":{"website":"http:\/\/www.bites-on.com"}}
{"lat":49.02323,"lon":-122.2054,"amenity":"Activities_Attractions","name":"Birchwood Dairy","tag":{"website":"http:\/\/www.birchwooddairy.com"}}
{"lat":49.16944,"lon":-123.0363,"amenity":"Activities_Attractions","name":"Lulu Island Winery","tag":{"website":"http:\/\/www.luluislandwinery.com"}}
{"lat":49.126,"lon":-122.3839,"amenity":"Activities_Attractions","name":"Tuscan Farm Gardens","tag":{"website":"https:\/\/www.tuscanfarmgardens.com\/"}}
{"lat":49.30976,"lon":-123.0735,"amenity":"Activities_Attractions","name":"Bluewater Adventures","tag":{"website":"http:\/\/www.bluewateradventures.ca"}}
{"lat":49.27156,"lon":-123.1367,"amenity":"Activities_Attractions","name":"Blue Pacific Yacht Charters","tag":{"website":"http:\/\/www.bluepacificcharters.ca"}}
{"lat":49.37975,"lon":-123.3315,"amenity":"Activities_Attractions","name":"Bowen Island Sea Kayaking","tag":{"website":"http:\/\/www.bowenislandkayaking.com"}}
{"lat":49.03893,"lon":-122.2235,"amenity":"Activities_Attractions","name":"Castle Fun Park","tag":{"website":"http:\/\/www.castlefunpark.com"}}
{"lat":49.27241,"lon":-123.1361,"amenity":"Activities_Attractions","name":"Bonnie Lee Fishing Charters","tag":{"website":"http:\/\/www.bonnielee.com"}}
{"lat":49.12125,"lon":-123.1708,"amenity":"Activities_Attractions","name":"Britannia Shipyards, National Historic Site","tag":{"website":"http:\/\/www.richmond.ca\/britannia"}}
{"lat":49.24103,"lon":-122.9699,"amenity":"Activities_Attractions","name":"Burnaby Art Gallery","tag":{"website":"https:\/\/www.burnaby.ca\/Things-To-Do\/Arts-and-Heritage\/Burnaby-Art-Gallery.html"}}
{"lat":49.10582,"lon":-122.6568,"amenity":"Activities_Attractions","name":"Cascades Casino Langley","tag":{"website":"http:\/\/www.cascadescasino.ca\/"}}
{"lat":49.09119,"lon":-123.0857,"amenity":"Activities_Attractions","name":"Delta Museum & Archives","tag":{"website":"http:\/\/www.delta.ca\/discover-delta\/museum"}}
{"lat":49.28431,"lon":-123.0309,"amenity":"Activities_Attractions","name":"Silversides Fishing Adventures","tag":{"website":"http:\/\/www.silversidesfishing.com\/"}}
{"lat":49.37436,"lon":-123.2745,"amenity":"Activities_Attractions","name":"Spirit Gallery","tag":{"website":"http:\/\/www.spirit-gallery.com"}}
{"lat":49.11172,"lon":-122.7296,"amenity":"Activities_Attractions","name":"Fraser Downs Racetrack & Casino","tag":{"website":"https:\/\/elementscasino.com\/"}}
{"lat":49.12991,"lon":-122.3002,"amenity":"Activities_Attractions","name":"Fraser River Safari","tag":{"website":"http:\/\/www.fraserriversafari.com"}}
{"lat":49.24548,"lon":-123.1533,"amenity":"Activities_Attractions","name":"International Diving Centre","tag":{"website":"http:\/\/diveidc.com"}}
{"lat":49.01799,"lon":-122.2733,"amenity":"Activities_Attractions","name":"Fraser Valley Trout Hatchery & Visitor Centre","tag":{"website":"https:\/\/www.gofishbc.com\/About-Us.aspx#research"}}
{"lat":49.28066,"lon":-123.0413,"amenity":"Activities_Attractions","name":"PNE - Pacific National Exhibition","tag":{"website":"https:\/\/www.pne.ca\/"}}
{"lat":49.1255,"lon":-123.1829,"amenity":"Activities_Attractions","name":"Steveston Museum","tag":{"website":"https:\/\/www.richmond.ca\/culture\/sites\/steveston-museum\/steveston.htm"}}
{"lat":49.28423,"lon":-123.1097,"amenity":"Activities_Attractions","name":"Coastal Peoples Fine Arts Gallery","tag":{"website":"http:\/\/www.coastalpeoples.com"}}
{"lat":49.27824,"lon":-123.1211,"amenity":"Activities_Attractions","name":"Contemporary Art Gallery","tag":{"website":"https:\/\/www.contemporaryartgallery.ca\/"}}
{"lat":49.30871,"lon":-123.0325,"amenity":"Activities_Attractions","name":"Endless Biking","tag":{"website":"http:\/\/www.endlessbiking.com\/index.htm"}}
{"lat":49.16734,"lon":-123.1471,"amenity":"Activities_Attractions","name":"Gateway Theatre","tag":{"website":"http:\/\/www.gatewaytheatre.com"}}
{"lat":49.26295,"lon":-122.7805,"amenity":"Activities_Attractions","name":"The Giggle Dam Dinner Theatre","tag":{"website":"http:\/\/www.giggledam.com"}}
{"lat":49.2864,"lon":-123.039,"amenity":"Activities_Attractions","name":"Hastings Racecourse","tag":{"website":"http:\/\/www.hastingsracecourse.com\/"}}
{"lat":49.05774,"lon":-122.5832,"amenity":"Activities_Attractions","name":"Backyard Vineyards","tag":{"website":"https:\/\/www.backyardvineyards.ca\/site\/home"}}
{"lat":49.28706,"lon":-123.1324,"amenity":"Activities_Attractions","name":"Roedde House Museum","tag":{"website":"http:\/\/roeddehouse.org"}}
{"lat":49.35473,"lon":-123.1003,"amenity":"Activities_Attractions","name":"Rockwood Adventures","tag":{"website":"https:\/\/www.rockwoodadventures.com\/"}}
{"lat":49.26664,"lon":-123.1389,"amenity":"Activities_Attractions","name":"Uno Langmann Limited Fine Art","tag":{"website":"https:\/\/www.langmann.com\/welcome"}}
{"lat":49.15739,"lon":-123.0816,"amenity":"Activities_Attractions","name":"Canada Berries Winery","tag":{"website":"http:\/\/www.canadablueberries.com"}}
{"lat":49.13606,"lon":-123.0633,"amenity":"Activities_Attractions","name":"Watermania","tag":{"website":"https:\/\/www.richmond.ca\/parksrec\/pools\/watermania.htm"}}
{"lat":49.20035,"lon":-122.9103,"amenity":"Activities_Attractions","name":"Fraser River Discovery Centre","tag":{"website":"http:\/\/www.fraserriverdiscovery.org"}}
{"lat":49.04344,"lon":-122.3049,"amenity":"Activities_Attractions","name":"Trethewey House Heritage Site\/MSA Museum","tag":{"website":"http:\/\/www.tretheweyhouse.ca"}}
{"lat":49.00726,"lon":-122.3159,"amenity":"Activities_Attractions","name":"The Apple Barn Pumpkin Farm Ltd","tag":{"website":"http:\/\/www.tavesfamilyfarms.com"}}
{"lat":49.27126,"lon":-123.1363,"amenity":"Activities_Attractions","name":"Bon Chovy Fishing Charters","tag":{"website":"http:\/\/www.bonchovy.com"}}
{"lat":49.17761,"lon":-122.3541,"amenity":"Activities_Attractions","name":"Trout Creek Farm","tag":{"website":"http:\/\/www.ucatchbc.com"}}
{"lat":49.2387,"lon":-122.8619,"amenity":"Activities_Attractions","name":"Coquitlam Heritage Society & Mackin Museum","tag":{"website":"http:\/\/www.coquitlamheritage.ca"}}
{"lat":49.31645,"lon":-123.0878,"amenity":"Activities_Attractions","name":"Mr Bannock","tag":{"website":"https:\/\/www.mrbannock.com"}}
{"lat":49.19729,"lon":-123.0964,"amenity":"Activities_Attractions","name":"Isabella Winery","tag":{"website":"http:\/\/www.isabellawinery.com"}}
{"lat":49.20267,"lon":-122.9269,"amenity":"Activities_Attractions","name":"Pacific Breeze Winery","tag":{"website":"http:\/\/www.pacificbreezewinery.com"}}
{"lat":49.31405,"lon":-123.0768,"amenity":"Activities_Attractions","name":"North Van Arts (North Vancouver Community Arts Council)","tag":{"website":"https:\/\/northvanarts.ca\/"}}
{"lat":49.27132,"lon":-123.1365,"amenity":"Activities_Attractions","name":"Wild Whales Vancouver","tag":{"website":"http:\/\/www.whalesvancouver.com"}}
{"lat":49.28455,"lon":-123.1088,"amenity":"Activities_Attractions","name":"Vancouver Toonie Tours","tag":{"website":"https:\/\/www.toonietours.ca"}}
{"lat":49.27098,"lon":-123.1361,"amenity":"Activities_Attractions","name":"Ukama Gallery","tag":{"website":"https:\/\/www.ukama.ca\/"}}
{"lat":49.27619,"lon":-123.1444,"amenity":"Activities_Attractions","name":"H.R. MacMillan Space Centre","tag":{"website":"http:\/\/www.spacecentre.ca"}}
{"lat":49.183,"lon":-123.1372,"amenity":"Activities_Attractions","name":"Lipont Art Centre, Lipont Place","tag":{"website":"http:\/\/www.lipontplace.com\/"}}
{"lat":49.27488,"lon":-123.1219,"amenity":"Activities_Attractions","name":"Swirl Wine Store - Yaletown","tag":{"website":"http:\/\/www.swirlwinestore.ca"}}
{"lat":49.03099,"lon":-122.8002,"amenity":"Activities_Attractions","name":"Swirl Wine Store - White Rock","tag":{"website":"http:\/\/www.swirlwinestore.ca"}}
{"lat":49.0954,"lon":-122.3134,"amenity":"Activities_Attractions","name":"Skydive Vancouver","tag":{"website":"http:\/\/www.vancouver-skydiving.bc.ca"}}
{"lat":49.18707,"lon":-122.9544,"amenity":"Activities_Attractions","name":"Starlight Casino","tag":{"website":"http:\/\/www.starlightcasino.ca\/"}}
{"lat":49.06015,"lon":-122.8793,"amenity":"Activities_Attractions","name":"Beach House Theatre","tag":{"website":"https:\/\/www.facebook.com\/beachhousetheatre\/"}}
{"lat":49.28429,"lon":-123.11,"amenity":"Activities_Attractions","name":"Taste Vancouver Food Tours","tag":{"website":"http:\/\/www.tastevancouverfoodtours.com"}}
{"lat":49.28234,"lon":-123.1145,"amenity":"Activities_Attractions","name":"Forbidden Vancouver","tag":{"website":"http:\/\/www.forbiddenvancouver.ca"}}
{"lat":49.37948,"lon":-123.3353,"amenity":"Activities_Attractions","name":"Candy In The Cove","tag":{"website":"https:\/\/candyinthecove.weebly.com\/"}}
{"lat":49.25602,"lon":-122.5873,"amenity":"Activities_Attractions","name":"Evergreen Adventures","tag":{"website":"http:\/\/www.evergreenadventures.ca"}}
{"lat":49.29356,"lon":-123.1464,"amenity":"Activities_Attractions","name":"Stanley Park Pitch and Putt","tag":{"website":"https:\/\/vancouver.ca\/parks-recreation-culture\/stanley-park-pitch-putt.aspx"}}
{"lat":49.24612,"lon":-122.7627,"amenity":"Activities_Attractions","name":"DVC Ventures Inc","tag":{"website":"http:\/\/www.vancouvergunrange.ca\/"}}
{"lat":49.24128,"lon":-123.1231,"amenity":"Activities_Attractions","name":"Queen Elizabeth Park Pitch and Putt","tag":{"website":"http:\/\/vancouverparksgolf.ca\/"}}
{"lat":49.27212,"lon":-123.0332,"amenity":"Activities_Attractions","name":"Rupert Park Pitch & Putt","tag":{"website":"http:\/\/vancouverparksgolf.ca"}}
{"lat":49.25313,"lon":-123.0942,"amenity":"Activities_Attractions","name":"Swallowtail Culinary Tours","tag":{"website":"http:\/\/www.swallowtail.ca"}}
{"lat":49.2493,"lon":-122.8275,"amenity":"Activities_Attractions","name":"Beautiful Vancouver Explorer","tag":{"website":"http:\/\/beautifulvancouverexplorer.com\/"}}
{"lat":49.37953,"lon":-123.3377,"amenity":"Activities_Attractions","name":"Catching Stars Gallery","tag":{"website":"https:\/\/www.catchingstarsgallery.com\/"}}
{"lat":49.28369,"lon":-123.1119,"amenity":"Activities_Attractions","name":"Wine Lovers Tours","tag":{"website":"http:\/\/www.wineloverstours.ca"}}
{"lat":49.20995,"lon":-123.0818,"amenity":"Activities_Attractions","name":"Dogwood Brewing","tag":{"website":"http:\/\/www.dogwoodbrew.com\/"}}
{"lat":49.27245,"lon":-123.1362,"amenity":"Activities_Attractions","name":"Yoho Cruises","tag":{"website":"https:\/\/yohocruises.com\/?language=en"}}
{"lat":49.10418,"lon":-122.6604,"amenity":"Activities_Attractions","name":"Chew on This Tasty Tours","tag":{"website":"https:\/\/chewonthistastytours.com\/"}}
{"lat":49.05605,"lon":-122.806,"amenity":"Activities_Attractions","name":"Casbah Day Spa","tag":{"website":"http:\/\/casbahdayspa.com\/"}}
{"lat":49.28768,"lon":-123.1152,"amenity":"Activities_Attractions","name":"Vantage Whistler","tag":{"website":"https:\/\/www.facebook.com\/vantagewhistler"}}
{"lat":49.27802,"lon":-123.1312,"amenity":"Activities_Attractions","name":"Bee\u2019s Knees eBike Tours and Rentals","tag":{"website":"http:\/\/beeskneesrentals.com"}}
{"lat":49.32878,"lon":-123.0723,"amenity":"Activities_Attractions","name":"Gordon Smith Gallery of Canadian Art","tag":{"website":"https:\/\/smithfoundation.co\/"}}
{"lat":49.32609,"lon":-123.0731,"amenity":"Activities_Attractions","name":"Lioness Tours Inc.","tag":{"website":"https:\/\/www.lionesstours.com\/"}}
{"lat":49.2192,"lon":-122.5986,"amenity":"Activities_Attractions","name":"The ACT Arts Centre","tag":{"website":"http:\/\/www.theactmapleridge.org"}}
{"lat":49.29845,"lon":-123.1312,"amenity":"Activities_Attractions","name":"Stanley Park Horse-Drawn Tours","tag":{"website":"http:\/\/www.stanleypark.com"}}
{"lat":49.06391,"lon":-122.0989,"amenity":"Activities_Attractions","name":"Ripples Estate Winery","tag":{"website":"http:\/\/www.rippleswinery.com"}}
{"lat":49.20479,"lon":-122.879,"amenity":"Activities_Attractions","name":"Sky Zone Surrey Trampoline Park","tag":{"website":"https:\/\/www.skyzone.com\/ca-surrey"}}
{"lat":49.32342,"lon":-123.0794,"amenity":"Activities_Attractions","name":"VanTopTours","tag":{"website":"http:\/\/www.vantoptours.com"}}
{"lat":49.09864,"lon":-122.7913,"amenity":"Activities_Attractions","name":"Vinoscenti Vineyards","tag":{"website":"https:\/\/vinoscentivineyards.ca\/"}}
{"lat":49.371,"lon":-123.0986,"amenity":"Activities_Attractions","name":"Grouse Mountain Resort","tag":{"website":"http:\/\/www.grousemountain.com"}}
{"lat":49.20197,"lon":-122.9273,"amenity":"Activities_Attractions","name":"Steel & Oak Brewing Co.","tag":{"website":"https:\/\/steelandoak.ca\/"}}
{"lat":49.37471,"lon":-123.2744,"amenity":"Activities_Attractions","name":"Predator Charters","tag":{"website":"http:\/\/www.predatorcharters.ca\/"}}
{"lat":49.02447,"lon":-122.3796,"amenity":"Activities_Attractions","name":"Principal Air","tag":{"website":"http:\/\/www.principalair.ca\/scenic.htm"}}
{"lat":49.27477,"lon":-123.1128,"amenity":"Activities_Attractions","name":"Vancity Tours","tag":{"website":"http:\/\/vancity-tours.com"}}
{"lat":49.27051,"lon":-123.1371,"amenity":"Activities_Attractions","name":"Pacific Angler Fishing Charters","tag":{"website":"http:\/\/www.vancouversalmonfishing.ca"}}
{"lat":49.28813,"lon":-123.1149,"amenity":"Activities_Attractions","name":"The West Coast Experience","tag":{"website":"https:\/\/www.facebook.com\/thewestcoastexperience\/"}}
{"lat":49.2892,"lon":-123.1103,"amenity":"Activities_Attractions","name":"FlyOver Canada","tag":{"website":"http:\/\/www.flyovercanada.com"}}
{"lat":49.265,"lon":-123.1327,"amenity":"Activities_Attractions","name":"Vancouver Cantata Singers","tag":{"website":"http:\/\/www.vancouvercantatasingers.com\/"}}
{"lat":49.26616,"lon":-123.1315,"amenity":"Activities_Attractions","name":"Vancouver Wine Tours by SEG","tag":{"website":"http:\/\/www.vancouverwinetour.ca"}}
{"lat":49.10476,"lon":-122.7327,"amenity":"Activities_Attractions","name":"Museum of Surrey","tag":{"website":"https:\/\/www.surrey.ca\/arts-culture\/museum-of-surrey"}}
{"lat":49.19175,"lon":-123.1339,"amenity":"Activities_Attractions","name":"Springloaded Fishing Charters","tag":{"website":"http:\/\/springloadedfishingcharters.com\/"}}
{"lat":49.2767,"lon":-123.0661,"amenity":"Activities_Attractions","name":"The Cultch","tag":{"website":"http:\/\/thecultch.com"}}
{"lat":49.29284,"lon":-123.1279,"amenity":"Activities_Attractions","name":"Electric Harbour Tours","tag":{"website":"http:\/\/electricharbourtours.com"}}
{"lat":49.28073,"lon":-122.8495,"amenity":"Activities_Attractions","name":"Rocky Point Kayak","tag":{"website":"http:\/\/www.rockypointkayak.com\/"}}
{"lat":49.27201,"lon":-123.1365,"amenity":"Activities_Attractions","name":"Into The Vineyard","tag":{"website":"http:\/\/www.intothevineyard.com"}}
{"lat":49.28192,"lon":-123.07,"amenity":"Activities_Attractions","name":"Storm Brewing Ltd.","tag":{"website":"http:\/\/www.stormbrewing.org"}}
{"lat":49.2703,"lon":-123.1348,"amenity":"Activities_Attractions","name":"Vancouver Foodie Tours","tag":{"website":"https:\/\/foodietours.ca\/"}}
{"lat":49.16217,"lon":-122.8424,"amenity":"Activities_Attractions","name":"Surrey Art Gallery","tag":{"website":"http:\/\/www.surrey.ca\/culture-recreation\/1537.aspx"}}
{"lat":49.05036,"lon":-122.8831,"amenity":"Activities_Attractions","name":"Crescent Beach","tag":{"website":"https:\/\/www.surrey.ca\/culture-recreation\/2216.aspx"}}
{"lat":49.22891,"lon":-123.1176,"amenity":"Activities_Attractions","name":"The Jewish Museum and Archives of BC","tag":{"website":"http:\/\/www.jewishmuseum.ca"}}
{"lat":49.37455,"lon":-123.2735,"amenity":"Activities_Attractions","name":"Mongoose Striker Fishing Charters","tag":{"website":"http:\/\/mongoosestrikerfishingcharters.com\/"}}
{"lat":49.12481,"lon":-122.6245,"amenity":"Activities_Attractions","name":"Napier's Country Antiques","tag":{"website":"http:\/\/www.napiersantiques.com"}}
{"lat":49.27531,"lon":-123.1256,"amenity":"Activities_Attractions","name":"Kayak Vancouver","tag":{"website":"http:\/\/www.KayakVancouver.ca"}}
{"lat":49.26245,"lon":-123.2524,"amenity":"Activities_Attractions","name":"Pacific Museum of the Earth","tag":{"website":"https:\/\/pme.ubc.ca\/"}}
{"lat":49.26213,"lon":-122.7799,"amenity":"Activities_Attractions","name":"PoCo Heritage Museum and Archives","tag":{"website":"http:\/\/www.pocoheritage.org\/"}}
{"lat":49.27657,"lon":-122.8571,"amenity":"Activities_Attractions","name":"Port Moody Arts Centre","tag":{"website":"https:\/\/www.pomoarts.ca\/gallery\/exhibitions"}}
{"lat":49.27924,"lon":-122.8507,"amenity":"Activities_Attractions","name":"Port Moody Station Museum","tag":{"website":"http:\/\/portmoodymuseum.org"}}
{"lat":49.28805,"lon":-123.1231,"amenity":"Activities_Attractions","name":"Easy Trips Vancouver","tag":{"website":"http:\/\/easytripsvancouver.com\/"}}
{"lat":49.00842,"lon":-122.6463,"amenity":"Activities_Attractions","name":"Vista D'Oro Winery","tag":{"website":"http:\/\/www.vistadoro.com"}}
{"lat":49.28465,"lon":-123.1201,"amenity":"Activities_Attractions","name":"Bill Reid Gallery of Northwest Coast Art","tag":{"website":"http:\/\/www.billreidgallery.ca"}}
{"lat":49.08033,"lon":-122.0544,"amenity":"Activities_Attractions","name":"Doing Earth Pottery","tag":{"website":"http:\/\/www.doingearthpottery.com"}}
{"lat":49.25252,"lon":-123.0883,"amenity":"Activities_Attractions","name":"Lang's Fishing Adventures","tag":{"website":"http:\/\/www.langsfishingadventures.com\/"}}
{"lat":49.26711,"lon":-123.1606,"amenity":"Activities_Attractions","name":"Vine & Hops Wine & Craft Beer Tours","tag":{"website":"http:\/\/www.vineandhops.ca"}}
{"lat":49.33072,"lon":-123.1232,"amenity":"Activities_Attractions","name":"Natural Trekking Tours","tag":{"website":"http:\/\/www.naturaltrekking.com"}}
{"lat":49.28799,"lon":-123.1147,"amenity":"Activities_Attractions","name":"Canadian Craft Tours","tag":{"website":"http:\/\/www.canadiancrafttours.ca"}}
{"lat":49.27092,"lon":-123.1363,"amenity":"Activities_Attractions","name":"Karen Cooper Gallery","tag":{"website":"http:\/\/karencoopergallery.com\/"}}
{"lat":49.28777,"lon":-123.114,"amenity":"Activities_Attractions","name":"Lawrence Tours","tag":{"website":"http:\/\/www.lawrencetours.com"}}
{"lat":49.17438,"lon":-122.5734,"amenity":"Activities_Attractions","name":"Ridge Wilderness Adventures","tag":{"website":"https:\/\/ridgewilderness.com\/wilderness\/"}}
{"lat":49.29026,"lon":-123.1211,"amenity":"Activities_Attractions","name":"Pacific Ferries","tag":{"website":"http:\/\/pacificferries.ca\/"}}
{"lat":49.37978,"lon":-123.3338,"amenity":"Activities_Attractions","name":"Bowen Island Tours","tag":{"website":"https:\/\/www.facebook.com\/bowenislandtours\/"}}
{"lat":49.11849,"lon":-122.6651,"amenity":"Activities_Attractions","name":"Trading Post Brewing","tag":{"website":"http:\/\/www.tradingpostbrewing.com"}}
{"lat":49.22388,"lon":-123.1991,"amenity":"Activities_Attractions","name":"Musqueam Cultural Centre","tag":{"website":"https:\/\/www.musqueam.bc.ca\/"}}
{"lat":49.27042,"lon":-123.1345,"amenity":"Activities_Attractions","name":"The Liberty Distillery","tag":{"website":"https:\/\/www.thelibertydistillery.com\/"}}
{"lat":49.20254,"lon":-123.1451,"amenity":"Activities_Attractions","name":"Pursuit Sport Fishing Charters","tag":{"website":"http:\/\/www.pursuitsportfishing.ca"}}
{"lat":49.02558,"lon":-122.3603,"amenity":"Activities_Attractions","name":"Compass Heli Tours","tag":{"website":"http:\/\/www.compasshelitours.com"}}
{"lat":49.25443,"lon":-123.0207,"amenity":"Activities_Attractions","name":"Ocean Quest Dive Centre","tag":{"website":"http:\/\/www.diveoceanquest.com"}}
{"lat":49.3747,"lon":-123.2735,"amenity":"Activities_Attractions","name":"Sewell's Marina","tag":{"website":"http:\/\/www.sewellsmarina.com"}}
{"lat":49.0306,"lon":-122.6112,"amenity":"Activities_Attractions","name":"The Fraser Valley Cider Company","tag":{"website":"http:\/\/www.fraservalleycider.ca"}}
{"lat":49.12443,"lon":-123.184,"amenity":"Activities_Attractions","name":"Vancouver Whale Watch","tag":{"website":"http:\/\/www.vancouverwhalewatch.com"}}
{"lat":49.11237,"lon":-122.7345,"amenity":"Activities_Attractions","name":"BC Vintage Truck Museum","tag":{"website":"http:\/\/bcvintagetruckmuseum.org"}}
{"lat":49.31124,"lon":-122.9807,"amenity":"Activities_Attractions","name":"Takaya Tours","tag":{"website":"http:\/\/TakayaTours.com"}}
{"lat":49.12355,"lon":-123.1817,"amenity":"Activities_Attractions","name":"Steveston Seabreeze Adventures & Whale Watching","tag":{"website":"http:\/\/www.seabreezeadventures.ca"}}
{"lat":49.02191,"lon":-122.3811,"amenity":"Activities_Attractions","name":"Heli Tours BC","tag":{"website":"https:\/\/www.helitoursbc.com\/"}}
{"lat":49.16866,"lon":-122.5752,"amenity":"Activities_Attractions","name":"Langley Centennial Museum","tag":{"website":"https:\/\/www.tol.ca\/en\/community-history.aspx"}}
{"lat":49.19961,"lon":-122.9123,"amenity":"Activities_Attractions","name":"Paddlewheeler Riverboat Tours","tag":{"website":"http:\/\/www.vancouverpaddlewheeler.com"}}
{"lat":49.37741,"lon":-123.3735,"amenity":"Activities_Attractions","name":"Bowen Island Adventures","tag":{"website":"http:\/\/bowenislandadventures.com\/"}}
{"lat":49.17447,"lon":-123.1519,"amenity":"Activities_Attractions","name":"Richmond Olympic Experience (ROX)","tag":{"website":"http:\/\/www.therox.ca"}}
{"lat":49.1688,"lon":-122.5739,"amenity":"Activities_Attractions","name":"Fort Langley National Historic Site","tag":{"website":"http:\/\/www.parkscanada.gc.ca\/fortlangley"}}
{"lat":49.05151,"lon":-122.6967,"amenity":"Activities_Attractions","name":"1st R.O.W. Estate Winery","tag":{"website":"http:\/\/www.1row.ca\/"}}
{"lat":49.26588,"lon":-123.1078,"amenity":"Activities_Attractions","name":"Fazakas Gallery","tag":{"website":"http:\/\/www.fazakasgallery.com"}}
{"lat":49.29133,"lon":-123.1423,"amenity":"Activities_Attractions","name":"Into The Wild Cycling Tours","tag":{"website":"http:\/\/www.intothewild.ca"}}
{"lat":49.05257,"lon":-122.3276,"amenity":"Activities_Attractions","name":"The Reach Gallery Museum Abbotsford","tag":{"website":"http:\/\/www.thereach.ca"}}
{"lat":49.23249,"lon":-122.8572,"amenity":"Activities_Attractions","name":"Trapped Coquitlam - Real Life Room Escape Games","tag":{"website":"https:\/\/trapped.ca\/locations\/coquitlam.html"}}
{"lat":49.27976,"lon":-123.1033,"amenity":"Activities_Attractions","name":"Dr. Sun Yat-Sen Classical Chinese Garden","tag":{"website":"http:\/\/www.vancouverchinesegarden.com"}}
{"lat":49.27695,"lon":-123.1403,"amenity":"Activities_Attractions","name":"BC Water Bikes","tag":{"website":"http:\/\/www.bcwaterbikes.ca\/"}}
{"lat":49.19761,"lon":-123.1401,"amenity":"Activities_Attractions","name":"McArthurGlen Designer Outlet Vancouver Airport","tag":{"website":"http:\/\/www.mcarthurglenvancouver.com"}}
{"lat":49.03554,"lon":-123.0723,"amenity":"Activities_Attractions","name":"Step Outside Adventures","tag":{"website":"http:\/\/www.soadventures.com"}}
{"lat":49.27506,"lon":-123.1997,"amenity":"Activities_Attractions","name":"Windsure Adventure Watersports","tag":{"website":"http:\/\/windsure.com\/"}}
{"lat":49.29979,"lon":-123.1356,"amenity":"Activities_Attractions","name":"Stanley Park Train","tag":{"website":"http:\/\/vancouver.ca\/parks-recreation-culture\/stanley-park-miniature-train.aspx"}}
{"lat":49.26738,"lon":-123.1112,"amenity":"Activities_Attractions","name":"Big Rock Brewery","tag":{"website":"https:\/\/bigrockbeer.com\/"}}
{"lat":49.26376,"lon":-123.1006,"amenity":"Activities_Attractions","name":"Enjoy Tour and Travel","tag":{"website":"http:\/\/www.enjoytourandtravel.com\/"}}
{"lat":49.26931,"lon":-123.1189,"amenity":"Activities_Attractions","name":"Sailing in Vancouver","tag":{"website":"http:\/\/www.sailinginvancouver.com"}}
{"lat":49.21745,"lon":-122.9081,"amenity":"Activities_Attractions","name":"The Gallery at Queen's Park","tag":{"website":"http:\/\/artscouncilnewwest.org\/gallery\/"}}
{"lat":49.02215,"lon":-122.8076,"amenity":"Activities_Attractions","name":"White Rock Pier","tag":{"website":"http:\/\/explorewhiterock.com\/see\/place-2\/"}}
{"lat":49.28338,"lon":-123.0737,"amenity":"Activities_Attractions","name":"Andina Brewing Company","tag":{"website":"http:\/\/andinabrewing.ca\/"}}
{"lat":49.20177,"lon":-122.9114,"amenity":"Activities_Attractions","name":"New Westminster Museum & Archives","tag":{"website":"https:\/\/anvilcentre.com\/discover\/new-westminster-museums-archives\/"}}
{"lat":49.14006,"lon":-122.8416,"amenity":"Activities_Attractions","name":"Globalduniya","tag":{"website":"https:\/\/www.globalduniya.ca\/"}}
{"lat":49.21682,"lon":-122.5937,"amenity":"Activities_Attractions","name":"Chances (Maple Ridge)","tag":{"website":"http:\/\/chancesmapleridge.com\/"}}
{"lat":49.04301,"lon":-122.2818,"amenity":"Activities_Attractions","name":"Field House Brewing Co","tag":{"website":"http:\/\/fieldhousebrewing.com\/"}}
{"lat":49.28803,"lon":-123.1128,"amenity":"Activities_Attractions","name":"Chali-Rosso Art Gallery","tag":{"website":"http:\/\/www.chalirosso.com"}}
{"lat":49.32705,"lon":-123.1548,"amenity":"Activities_Attractions","name":"Ferry Building Gallery","tag":{"website":"https:\/\/ferrybuildinggallery.ca\/"}}
{"lat":49.29438,"lon":-123.1378,"amenity":"Activities_Attractions","name":"Stanley Park Nature House","tag":{"website":"https:\/\/stanleyparkecology.ca\/education\/nature-house\/"}}
{"lat":49.12767,"lon":-122.3227,"amenity":"Activities_Attractions","name":"GT Race Experience","tag":{"website":"http:\/\/www.gtrace.ca"}}
{"lat":49.26485,"lon":-123.1387,"amenity":"Activities_Attractions","name":"Douglas Reynolds Gallery","tag":{"website":"http:\/\/www.douglasreynoldsgallery.com"}}
{"lat":49.09626,"lon":-122.0445,"amenity":"Activities_Attractions","name":"Great Blue Heron Nature Reserve","tag":{"website":"http:\/\/chilliwackblueheron.com\/"}}
{"lat":49.27401,"lon":-123.1559,"amenity":"Activities_Attractions","name":"Kitsilano Beach","tag":{"website":"http:\/\/vancouver.ca\/parks-recreation-culture\/kitsilano-beach.aspx"}}
{"lat":49.27822,"lon":-123.0874,"amenity":"Activities_Attractions","name":"History Walks in Vancouver with James Johnstone - Private Tour","tag":{"website":"http:\/\/historywalksinvancouver.blogspot.ca\/"}}
{"lat":49.28515,"lon":-123.1115,"amenity":"Activities_Attractions","name":"Ghostly Vancouver Tours","tag":{"website":"http:\/\/www.ghostlyvancouvertours.com"}}
{"lat":49.0331,"lon":-123.0921,"amenity":"Activities_Attractions","name":"Big Splash Water Park","tag":{"website":"http:\/\/bigsplashwaterpark.ca\/"}}
{"lat":49.00237,"lon":-122.5738,"amenity":"Activities_Attractions","name":"Glass House Estate Winery","tag":{"website":"http:\/\/www.glasshouseestatewinery.com"}}
{"lat":49.16248,"lon":-122.5554,"amenity":"Activities_Attractions","name":"Eagle Acres Dairy","tag":{"website":"http:\/\/www.eagleacres.ca"}}
{"lat":49.25525,"lon":-123.2473,"amenity":"Activities_Attractions","name":"Vancouver Food on Foot Tour - Tours","tag":{"website":"http:\/\/vancouverfoodonfoottour.weebly.com\/"}}
{"lat":49.26984,"lon":-123.1328,"amenity":"Activities_Attractions","name":"Federation Gallery","tag":{"website":"http:\/\/artists.ca\/federation_gallery"}}
{"lat":49.29329,"lon":-123.1323,"amenity":"Activities_Attractions","name":"Neptune's Yacht Charters","tag":{"website":"http:\/\/www.neptunesyachtcharters.com\/"}}
{"lat":49.11843,"lon":-122.6552,"amenity":"Activities_Attractions","name":"Spa Utopia - Langley","tag":{"website":"http:\/\/spautopia.ca\/contact-us\/langley"}}
{"lat":49.27859,"lon":-123.1152,"amenity":"Activities_Attractions","name":"Smile Thai Wellness Spa","tag":{"website":"http:\/\/smilethaiwellness.com"}}
{"lat":49.16293,"lon":-123.1428,"amenity":"Activities_Attractions","name":"Richmond Art Gallery","tag":{"website":"http:\/\/www.richmondartgallery.org"}}
{"lat":49.24126,"lon":-122.9685,"amenity":"Activities_Attractions","name":"The Shadbolt Centre for the Arts","tag":{"website":"http:\/\/www.burnaby.ca\/Things-To-Do\/Arts-and-Heritage\/Shadbolt-Centre-for-the-Arts.html"}}
{"lat":49.0541,"lon":-122.8739,"amenity":"Activities_Attractions","name":"White Rock Sea Tours and Whale Watching","tag":{"website":"http:\/\/www.whiterockseatours.com\/"}}
{"lat":49.28974,"lon":-123.1238,"amenity":"Activities_Attractions","name":"Vancouver Tours en Espanol","tag":{"website":"https:\/\/www.vancouvertoursenespanol.com\/"}}
{"lat":49.06759,"lon":-122.2677,"amenity":"Activities_Attractions","name":"Fraser Fishing Adventures (Abbotsford)","tag":{"website":"http:\/\/www.fraserfishingadventures.com"}}
{"lat":49.27511,"lon":-123.2028,"amenity":"Activities_Attractions","name":"Jericho Beach Kayak Centre","tag":{"website":"https:\/\/jerichobeachkayak.com\/"}}
{"lat":49.30825,"lon":-122.9888,"amenity":"Activities_Attractions","name":"Kayak Crusades Vancouver","tag":{"website":"http:\/\/kayakcrusades.ca"}}
{"lat":49.03145,"lon":-122.6386,"amenity":"Activities_Attractions","name":"Festina Lente Estate Winery","tag":{"website":"http:\/\/www.FestinaLente.ca"}}
{"lat":49.12835,"lon":-122.3027,"amenity":"Activities_Attractions","name":"Oliver's Sportfishing Adventures","tag":{"website":"http:\/\/www.oliversfishing.com"}}
{"lat":49.10341,"lon":-122.7348,"amenity":"Activities_Attractions","name":"Fraser Valley Heritage Railway","tag":{"website":"http:\/\/fvhrs.org"}}
{"lat":49.22683,"lon":-122.8375,"amenity":"Activities_Attractions","name":"Hard Rock Casino Vancouver","tag":{"website":"http:\/\/www.hardrockcasinovancouver.com\/"}}
{"lat":49.22046,"lon":-122.9289,"amenity":"Activities_Attractions","name":"Art of Sauna","tag":{"website":"http:\/\/www.artofsauna.ca\/"}}
{"lat":49.28215,"lon":-123.0763,"amenity":"Activities_Attractions","name":"Callister Brewing Co","tag":{"website":"http:\/\/www.callisterbrewing.com"}}
{"lat":49.27538,"lon":-123.1128,"amenity":"Activities_Attractions","name":"Spa by JW","tag":{"website":"https:\/\/www.marriott.com\/hotels\/hotel-information\/fitness-spa-services\/details\/yvrjw-jw-marriott-parq-vancouver\/6049547\/"}}
{"lat":49.26884,"lon":-123.0987,"amenity":"Activities_Attractions","name":"Gallery Jones","tag":{"website":"http:\/\/www.galleryjones.com"}}
{"lat":49.28793,"lon":-123.1146,"amenity":"Activities_Attractions","name":"Best Vancouver Tours","tag":{"website":"http:\/\/www.bestvancouvertours.com\/"}}
{"lat":49.25615,"lon":-122.9221,"amenity":"Activities_Attractions","name":"Dageraad Brewing","tag":{"website":"http:\/\/dageraadbrewing.com\/"}}
{"lat":49.16627,"lon":-122.5829,"amenity":"Activities_Attractions","name":"Fort Langley Village Farmers Market","tag":{"website":"http:\/\/www.fortlangleyvillagefarmersmarket.org"}}
{"lat":49.20125,"lon":-122.6615,"amenity":"Activities_Attractions","name":"Rod Tuggerz Fishing Adventures","tag":{"website":"https:\/\/www.facebook.com\/RodTuggerz\/"}}
{"lat":49.2706,"lon":-123.1353,"amenity":"Activities_Attractions","name":"Carousel Theatre for Young People","tag":{"website":"http:\/\/www.carouseltheatre.ca\/"}}
{"lat":49.02169,"lon":-122.8075,"amenity":"Activities_Attractions","name":"White Rock Museum & Archives","tag":{"website":"http:\/\/www.whiterockmuseum.ca"}}
{"lat":49.28806,"lon":-123.116,"amenity":"Activities_Attractions","name":"Willow Stream Spa at Fairmont Pacific Rim","tag":{"website":"http:\/\/www.fairmont.com\/pacific-rim-vancouver\/willow-stream\/"}}
{"lat":49.30405,"lon":-122.9581,"amenity":"Activities_Attractions","name":"Cates Park Paddling Centre","tag":{"website":"http:\/\/www.catespark.com"}}
{"lat":49.12974,"lon":-122.8373,"amenity":"Activities_Attractions","name":"Sea to Sky Wilderness Adventures","tag":{"website":"https:\/\/bcyukonadventures.com\/"}}
{"lat":49.25719,"lon":-123.1392,"amenity":"Activities_Attractions","name":"Selfology","tag":{"website":"http:\/\/selfology.com\/"}}
{"lat":49.35847,"lon":-123.2684,"amenity":"Activities_Attractions","name":"Watermark Salmon Fishing Charters","tag":{"website":"https:\/\/www.watermarkcharters.ca\/"}}
{"lat":49.03461,"lon":-122.3375,"amenity":"Activities_Attractions","name":"Mennonite Heritage Museum","tag":{"website":"http:\/\/mennonitemuseum.org\/"}}
{"lat":49.27555,"lon":-123.2013,"amenity":"Activities_Attractions","name":"MacSailing Inc.","tag":{"website":"http:\/\/www.macsailing.com"}}
{"lat":49.05494,"lon":-122.3377,"amenity":"Activities_Attractions","name":"Metzger Collection","tag":{"website":"https:\/\/metzgercollection.org"}}
{"lat":49.2878,"lon":-123.1135,"amenity":"Activities_Attractions","name":"BeWild Adventures & Wellness","tag":{"website":"http:\/\/www.bewildadventures.com"}}
{"lat":49.27787,"lon":-123.1143,"amenity":"Activities_Attractions","name":"Aquatic Spa","tag":{"website":"http:\/\/vanaquaticspa.com\/"}}
{"lat":49.26848,"lon":-123.1672,"amenity":"Activities_Attractions","name":"The Diving Locker","tag":{"website":"http:\/\/divinglocker.ca"}}
{"lat":49.28601,"lon":-123.1126,"amenity":"Activities_Attractions","name":"Secret Food Tours Vancouver","tag":{"website":"http:\/\/www.secretfoodtours.com\/vancouver\/"}}
{"lat":49.24219,"lon":-122.6571,"amenity":"Activities_Attractions","name":"Leghorn Ranch","tag":{"website":"http:\/\/www.vancouverhorsebackriding.com"}}
{"lat":49.28681,"lon":-123.1414,"amenity":"Activities_Attractions","name":"Vancouver Bike Tours","tag":{"website":"http:\/\/www.biketourvancouver.com"}}
{"lat":49.25392,"lon":-123.2511,"amenity":"Activities_Attractions","name":"Greenheart TreeWalk at UBC Botanical Garden","tag":{"website":"http:\/\/botanicalgarden.ubc.ca\/visit\/greenheart-treewalk\/"}}
{"lat":49.18892,"lon":-123.1076,"amenity":"Activities_Attractions","name":"Urban Pedal Tours Vancouver (formerly Brew Bike Tours)","tag":{"website":"https:\/\/vancouver.urbanpedaltours.com\/"}}
{"lat":49.34297,"lon":-123.1139,"amenity":"Activities_Attractions","name":"Capilano Suspension Bridge Park","tag":{"website":"http:\/\/www.capbridge.com"}}
{"lat":49.28467,"lon":-123.1093,"amenity":"Activities_Attractions","name":"Gray Line Westcoast Sightseeing","tag":{"website":"http:\/\/westcoastsightseeing.com"}}
{"lat":49.05151,"lon":-122.5146,"amenity":"Activities_Attractions","name":"Early Bird Family Farm","tag":{"website":"https:\/\/www.earlybirdfamilyfarm.com\/"}}
{"lat":49.18873,"lon":-123.0832,"amenity":"Activities_Attractions","name":"Moon & Back Gallery","tag":{"website":"https:\/\/www.moonandbackgallery.com\/"}}
{"lat":49.25939,"lon":-123.1051,"amenity":"Activities_Attractions","name":"Pacific Backroader","tag":{"website":"https:\/\/www.pacificbackroader.com\/"}}
{"lat":49.23064,"lon":-122.893,"amenity":"Activities_Attractions","name":"Capital City Classic Arcade","tag":{"website":"https:\/\/www.capcityarcade.com\/"}}
{"lat":49.28071,"lon":-123.1038,"amenity":"Activities_Attractions","name":"Chinese Canadian Museum","tag":{"website":"https:\/\/www.chinesecanadianmuseum.ca\/"}}
{"lat":49.20015,"lon":-122.9117,"amenity":"Activities_Attractions","name":"River Market - New Westminster","tag":{"website":"https:\/\/rivermarket.ca\/"}}
{"lat":49.21618,"lon":-122.9829,"amenity":"Activities_Attractions","name":"Michael J Fox Theatre","tag":{"website":"https:\/\/michaeljfoxtheatre.ca\/"}}
{"lat":49.22575,"lon":-122.8859,"amenity":"Activities_Attractions","name":"Another Beer Co.","tag":{"website":"https:\/\/www.anotherbeerco.com\/"}}
{"lat":49.31022,"lon":-123.0788,"amenity":"Activities_Attractions","name":"Reckless Shipyards","tag":{"website":"https:\/\/recklessshipyards.ca\/"}}
{"lat":49.2846,"lon":-123.1089,"amenity":"Activities_Attractions","name":"Mystery Towns Vancouver","tag":{"website":"https:\/\/www.mysterytowns.com\/adventures"}}
{"lat":49.3304,"lon":-123.1598,"amenity":"Activities_Attractions","name":"West Vancouver Art Museum","tag":{"website":"https:\/\/westvancouverartmuseum.ca\/"}}
{"lat":49.28031,"lon":-123.1008,"amenity":"Activities_Attractions","name":"Chinatown Storytelling Centre","tag":{"website":"https:\/\/www.chinatownstorytellingcentre.org\/"}}
{"lat":49.26239,"lon":-123.0976,"amenity":"Activities_Attractions","name":"Zero Latency","tag":{"website":"https:\/\/www.zerolatencyvancouver.com\/"}}
{"lat":49.28128,"lon":-123.0564,"amenity":"Activities_Attractions","name":"Mountain View Motorcycle Adventures","tag":{"website":"https:\/\/mvmadventures.com\/"}}
